{"type": "FeatureCollection", "features": [{"type": "Feature", "properties": {"name": "bambergerhotels", "addr:city": "Kemmern", "addr:street": "Hauptstra\u00dfe", "addr:postcode": "96164", "stars": "3", "kloepsce:postal_code": "96164", "cluster": "cluster_96_1", "kloepsce:id": "96#01", "kloepsce:name": "96#01 bambergerhotels"}, "geometry": {"type": "Polygon", "coordinates": [[[10.8826708, 49.9554469], [10.8827809, 49.95535], [10.8828716, 49.9553927], [10.8829795, 49.9552978], [10.8830129, 49.9553135], [10.883038, 49.9552914], [10.8831192, 49.9553296], [10.8830985, 49.9553477], [10.8831417, 49.955368], [10.8830473, 49.9554511], [10.8831273, 49.9554887], [10.8829992, 49.9556014], [10.8826708, 49.9554469]]]}}, {"type": "Feature", "properties": {"name": "National", "addr:city": "Bamberg", "addr:street": "Luitpoldstra\u00dfe", "addr:postcode": "96052", "stars": "3", "kloepsce:postal_code": "96052", "cluster": "cluster_96_2", "kloepsce:id": "96#02", "kloepsce:name": "96#02 National"}, "geometry": {"type": "Polygon", "coordinates": [[[10.8954507, 49.8989193], [10.8955707, 49.898841], [10.89552, 49.8988086], [10.8956635, 49.8987153], [10.8957472, 49.8987713], [10.8958095, 49.8988101], [10.8958231, 49.8988577], [10.8956675, 49.8990026], [10.8956176, 49.8990492], [10.8954507, 49.8989193]]]}}, {"type": "Feature", "properties": {"name": "Volkspark", "addr:city": "Bamberg", "addr:street": "P\u00f6deldorfer Stra\u00dfe", "addr:postcode": "96050", "kloepsce:postal_code": "96050", "cluster": "cluster_96_3", "kloepsce:id": "96#03", "kloepsce:name": "96#03 Volkspark"}, "geometry": {"type": "Polygon", "coordinates": [[[10.9276522, 49.9018273], [10.9276745, 49.9016442], [10.9278626, 49.9016537], [10.9278402, 49.9018369], [10.9276522, 49.9018273]]]}}, {"type": "Feature", "properties": {"name": "Apart Hotel Gartenstadt", "addr:city": "Bamberg", "addr:street": "Stauffenbergstra\u00dfe", "addr:postcode": "96052", "kloepsce:postal_code": "96052", "cluster": "cluster_96_4", "kloepsce:id": "96#04", "kloepsce:name": "96#04 Apart Hotel Gartenstadt"}, "geometry": {"type": "Polygon", "coordinates": [[[10.9226812, 49.9094252], [10.9228711, 49.9094509], [10.9228439, 49.9095343], [10.9226539, 49.9095085], [10.9226812, 49.9094252]]]}}, {"type": "Feature", "properties": {"name": "Hotel Gastst\u00e4tte Bruckertshof", "addr:city": "Bamberg", "addr:street": "Messerschmittstra\u00dfe", "addr:postcode": "96052", "kloepsce:postal_code": "96052", "cluster": "cluster_96_5", "kloepsce:id": "96#05", "kloepsce:name": "96#05 Hotel Gastst\u00e4tte Bruckertshof"}, "geometry": {"type": "Polygon", "coordinates": [[[10.9075893, 49.9229993], [10.9075785, 49.9229816], [10.9075581, 49.922948], [10.9075378, 49.9229147], [10.9077037, 49.9228728], [10.9077552, 49.9229574], [10.9075893, 49.9229993]]]}}, {"type": "Feature", "properties": {"name": "Goldener Adler", "addr:city": "Hallstadt", "addr:street": "Lichtenfelser Stra\u00dfe", "addr:postcode": "96103", "stars": "4", "kloepsce:postal_code": "96103", "cluster": "cluster_96_6", "kloepsce:id": "96#06", "kloepsce:name": "96#06 Goldener Adler"}, "geometry": {"type": "Polygon", "coordinates": [[[10.8793463, 49.9307317], [10.8792741, 49.9308214], [10.8792567, 49.9308156], [10.8790221, 49.9307373], [10.8790419, 49.9307127], [10.8790943, 49.9306476], [10.8793463, 49.9307317]]]}}, {"type": "Feature", "properties": {"name": "Hotel Bamberg Inn", "addr:city": "Hallstadt", "addr:street": "Bamberger Stra\u00dfe", "addr:postcode": "96103", "kloepsce:postal_code": "96103", "cluster": "cluster_96_7", "kloepsce:id": "96#07", "kloepsce:name": "96#07 Hotel Bamberg Inn"}, "geometry": {"type": "Polygon", "coordinates": [[[10.8739628, 49.9223827], [10.873968, 49.9222393], [10.8739157, 49.9222385], [10.8739187, 49.9221535], [10.874159, 49.9221571], [10.8741546, 49.9222807], [10.8742007, 49.9222814], [10.8741969, 49.9223862], [10.8739628, 49.9223827]]]}}, {"type": "Feature", "properties": {"name": "Am Brauereidreieck", "addr:city": "Bamberg", "addr:street": "Holzgartenstra\u00dfe", "addr:postcode": "96050", "kloepsce:postal_code": "96050", "cluster": "cluster_96_8", "kloepsce:id": "96#08", "kloepsce:name": "96#08 Am Brauereidreieck"}, "geometry": {"type": "Polygon", "coordinates": [[[10.9077618, 49.8912306], [10.9075865, 49.8912867], [10.9075473, 49.891236], [10.9074679, 49.8911331], [10.9076433, 49.8910769], [10.9077618, 49.8912306]]]}}, {"type": "Feature", "properties": {"name": "Tandem-Hotel & Caf\u00e9", "addr:city": "Bamberg", "addr:street": "Untere Sandstra\u00dfe", "addr:postcode": "96049", "kloepsce:postal_code": "96049", "cluster": "cluster_96_9", "kloepsce:id": "96#09", "kloepsce:name": "96#09 Tandem-Hotel & Caf\u00e9"}, "geometry": {"type": "Polygon", "coordinates": [[[10.8817173, 49.8940306], [10.8816591, 49.893984], [10.8816318, 49.8939621], [10.8816749, 49.8939391], [10.881651, 49.8939204], [10.8816029, 49.893943], [10.8815387, 49.8938862], [10.8814619, 49.8938183], [10.8814829, 49.8938084], [10.881566, 49.8937692], [10.8816605, 49.8938528], [10.881755, 49.893931], [10.8818153, 49.8939779], [10.8817173, 49.8940306]]]}}, {"type": "Feature", "properties": {"name": "Zum Goldenen Anker", "addr:city": "Bamberg", "addr:street": "Untere Sandstra\u00dfe", "addr:postcode": "96049", "kloepsce:postal_code": "96049", "cluster": "cluster_96_10", "kloepsce:id": "96#10", "kloepsce:name": "96#10 Zum Goldenen Anker"}, "geometry": {"type": "Polygon", "coordinates": [[[10.8766206, 49.8963635], [10.8765148, 49.8963307], [10.8766326, 49.8961823], [10.8767443, 49.8962191], [10.8766206, 49.8963635]]]}}, {"type": "Feature", "properties": {"name": "Hotel Central", "addr:city": "Bamberg", "addr:street": "Promenadestra\u00dfe", "addr:postcode": "96047", "kloepsce:postal_code": "96047", "cluster": "cluster_96_11", "kloepsce:id": "96#11", "kloepsce:name": "96#11 Hotel Central"}, "geometry": {"type": "Polygon", "coordinates": [[[10.8919031, 49.8927588], [10.8918684, 49.8928205], [10.8918355, 49.8928788], [10.891639, 49.8928275], [10.8916859, 49.8927611], [10.8917318, 49.8926962], [10.8919031, 49.8927588]]]}}, {"type": "Feature", "properties": {"name": "Romantik Hotel Restaurant Weinhaus Messerschmitt", "addr:city": "Bamberg", "addr:street": "Lange Stra\u00dfe", "addr:postcode": "96047", "stars": "4", "kloepsce:postal_code": "96047", "cluster": "cluster_96_12", "kloepsce:id": "96#12", "kloepsce:name": "96#12 Romantik Hotel Restaurant Weinhaus Messerschmitt"}, "geometry": {"type": "Polygon", "coordinates": [[[10.8917155, 49.8920209], [10.8920217, 49.8919989], [10.8920405, 49.8921078], [10.8918551, 49.8921208], [10.8917404, 49.8921295], [10.8917155, 49.8920209]]]}}, {"type": "Feature", "properties": {"name": "Graupner", "addr:city": "Bamberg", "addr:street": "Lange Stra\u00dfe", "addr:postcode": "96047", "kloepsce:postal_code": "96047", "cluster": "cluster_96_13", "kloepsce:id": "96#13", "kloepsce:name": "96#13 Graupner"}, "geometry": {"type": "Polygon", "coordinates": [[[10.8890696, 49.8924367], [10.8891074, 49.8924389], [10.8891599, 49.892442], [10.8892053, 49.8924447], [10.8892499, 49.8924473], [10.8892412, 49.8925415], [10.889157, 49.8925342], [10.8891177, 49.892531], [10.8890701, 49.8925264], [10.8890696, 49.8924367]]]}}, {"type": "Feature", "properties": {"name": "Welcome Kongresshotel", "addr:city": "Bamberg", "addr:street": "Mu\u00dfstra\u00dfe", "addr:postcode": "96047", "kloepsce:postal_code": "96047", "cluster": "cluster_96_14", "kloepsce:id": "96#14", "kloepsce:name": "96#14 Welcome Kongresshotel"}, "geometry": {"type": "Polygon", "coordinates": [[[10.8765822, 49.8977872], [10.8764239, 49.897737], [10.8764918, 49.8977094], [10.8764092, 49.8976802], [10.8765278, 49.8976203], [10.8766706, 49.8975493], [10.8768187, 49.8974613], [10.8769274, 49.8973856], [10.8770303, 49.897303], [10.8770978, 49.8972436], [10.8771443, 49.8971966], [10.8771856, 49.8971649], [10.8772475, 49.8971231], [10.8773166, 49.8970752], [10.8773916, 49.8970347], [10.8774647, 49.8970023], [10.8775846, 49.8969576], [10.8776817, 49.8969343], [10.8778008, 49.8969136], [10.8777932, 49.8969835], [10.8778068, 49.8969857], [10.8778041, 49.8969962], [10.8779183, 49.8969838], [10.8779015, 49.8970954], [10.8777437, 49.8971218], [10.8776338, 49.8971543], [10.8775361, 49.8971935], [10.8774329, 49.8972452], [10.8773479, 49.8973089], [10.8772789, 49.8973717], [10.8771596, 49.8974604], [10.8770356, 49.8975492], [10.8769333, 49.8976172], [10.8768595, 49.8976595], [10.8767635, 49.8977051], [10.8765822, 49.8977872]]]}}, {"type": "Feature", "properties": {"name": "Wilde Rose", "addr:city": "Bamberg", "addr:street": "Ke\u00dflerstra\u00dfe", "addr:postcode": "96047", "stars": "3", "kloepsce:postal_code": "96047", "cluster": "cluster_96_15", "kloepsce:id": "96#15", "kloepsce:name": "96#15 Wilde Rose"}, "geometry": {"type": "Polygon", "coordinates": [[[10.8891871, 49.8928595], [10.8891988, 49.8928627], [10.8894737, 49.8929369], [10.8894819, 49.8929391], [10.88941, 49.8930495], [10.889289, 49.8930168], [10.8892272, 49.8930001], [10.8892097, 49.8930269], [10.8890978, 49.8929967], [10.8891447, 49.8929247], [10.8891871, 49.8928595]]]}}, {"type": "Feature", "properties": {"name": "City Hotel", "addr:city": "Bamberg", "addr:street": "Willy-Lessing-Stra\u00dfe", "addr:postcode": "96047", "kloepsce:postal_code": "96047", "cluster": "cluster_96_16", "kloepsce:id": "96#16", "kloepsce:name": "96#16 City Hotel"}, "geometry": {"type": "Polygon", "coordinates": [[[10.8938744, 49.894195], [10.8938221, 49.8942239], [10.893742, 49.8942682], [10.8935829, 49.8942931], [10.8935439, 49.8941841], [10.8935283, 49.8941417], [10.8937384, 49.8941103], [10.8938361, 49.8940935], [10.8938559, 49.8941459], [10.8938744, 49.894195]]]}}, {"type": "Feature", "properties": {"name": "wohnbar", "addr:city": "Bamberg", "addr:street": "Stangsstra\u00dfe", "addr:postcode": "96047", "kloepsce:postal_code": "96047", "cluster": "cluster_96_17", "kloepsce:id": "96#17", "kloepsce:name": "96#17 wohnbar"}, "geometry": {"type": "Polygon", "coordinates": [[[10.8859486, 49.8944306], [10.8859916, 49.8943429], [10.8860669, 49.8943598], [10.8861458, 49.8943776], [10.886119, 49.8944676], [10.886096, 49.8945402], [10.8860326, 49.8945283], [10.8860535, 49.8944541], [10.8859961, 49.8944409], [10.8859652, 49.8944927], [10.8859196, 49.8944808], [10.8859486, 49.8944306]]]}}, {"type": "Feature", "properties": {"name": "Hotel Palais Schrottenberg", "addr:city": "Bamberg", "addr:street": "Kasernstra\u00dfe", "addr:postcode": "96049", "kloepsce:postal_code": "96049", "cluster": "cluster_96_18", "kloepsce:id": "96#18", "kloepsce:name": "96#18 Hotel Palais Schrottenberg"}, "geometry": {"type": "Polygon", "coordinates": [[[10.8844335, 49.8922748], [10.8844178, 49.8922623], [10.8843676, 49.8922224], [10.8843469, 49.8922059], [10.884406, 49.8921742], [10.8844728, 49.8921417], [10.8845592, 49.8920988], [10.8845088, 49.8920202], [10.8846246, 49.8919899], [10.8846357, 49.8920037], [10.8847359, 49.8921278], [10.8845636, 49.8922116], [10.8844335, 49.8922748]]]}}, {"type": "Feature", "properties": {"name": "Hotel Bamberger Hof Bellevue", "addr:city": "Bamberg", "addr:street": "Sch\u00f6nleinsplatz", "addr:postcode": "96047", "stars": "4", "kloepsce:postal_code": "96047", "cluster": "cluster_96_19", "kloepsce:id": "96#19", "kloepsce:name": "96#19 Hotel Bamberger Hof Bellevue"}, "geometry": {"type": "Polygon", "coordinates": [[[10.8920265, 49.8914451], [10.8918556, 49.8914092], [10.8919057, 49.8913167], [10.8916534, 49.89126], [10.8917072, 49.8911604], [10.8917266, 49.8911648], [10.892083, 49.8912447], [10.8921292, 49.8912551], [10.8920763, 49.8913529], [10.8920265, 49.8914451]]]}}, {"type": "Feature", "properties": {"name": "Alt Bamberg", "addr:city": "Bamberg", "addr:street": "Habergasse", "addr:postcode": "96047", "kloepsce:postal_code": "96047", "cluster": "cluster_96_20", "kloepsce:id": "96#20", "kloepsce:name": "96#20 Alt Bamberg"}, "geometry": {"type": "Polygon", "coordinates": [[[10.8893107, 49.891627], [10.8894359, 49.8916192], [10.8895388, 49.8916193], [10.8895386, 49.8917618], [10.889433, 49.8917623], [10.8894334, 49.8917482], [10.8893787, 49.8917482], [10.8893785, 49.8918085], [10.8893076, 49.8918088], [10.8893078, 49.8917492], [10.8893079, 49.891703], [10.8893107, 49.891627]]]}}, {"type": "Feature", "properties": {"name": "Hotel Bergschl\u00f6sschen", "addr:city": "Bamberg", "addr:street": "Am Bundleshof", "addr:postcode": "96049", "kloepsce:postal_code": "96049", "cluster": "cluster_96_21", "kloepsce:id": "96#21", "kloepsce:name": "96#21 Hotel Bergschl\u00f6sschen"}, "geometry": {"type": "Polygon", "coordinates": [[[10.8677298, 49.8897791], [10.8677937, 49.8895971], [10.8679656, 49.8896221], [10.8679017, 49.8898041], [10.8677298, 49.8897791]]]}}, {"type": "Feature", "properties": {"name": "Hotel Restaurant Bruderm\u00fchle", "addr:city": "Bamberg", "addr:street": "Schranne", "addr:postcode": "96049", "stars": "3", "kloepsce:postal_code": "96049", "cluster": "cluster_96_22", "kloepsce:id": "96#22", "kloepsce:name": "96#22 Hotel Restaurant Bruderm\u00fchle"}, "geometry": {"type": "Polygon", "coordinates": [[[10.8866129, 49.8907451], [10.8868259, 49.8908103], [10.8868209, 49.8909883], [10.886664, 49.8909622], [10.8866868, 49.8909312], [10.8865057, 49.8908666], [10.8866129, 49.8907451]]]}}, {"type": "Feature", "properties": {"name": "Hotel Nepomuk", "addr:city": "Bamberg", "addr:street": "Obere M\u00fchlbr\u00fccke", "addr:postcode": "96049", "stars": "4", "kloepsce:postal_code": "96049", "cluster": "cluster_96_23", "kloepsce:id": "96#23", "kloepsce:name": "96#23 Hotel Nepomuk"}, "geometry": {"type": "Polygon", "coordinates": [[[10.8875219, 49.8893022], [10.8875737, 49.8893176], [10.8875565, 49.8893415], [10.8875441, 49.8893588], [10.8874924, 49.8893434], [10.8874773, 49.8893644], [10.8874169, 49.889345], [10.8872973, 49.8893067], [10.8873426, 49.8892422], [10.8873825, 49.8892531], [10.8873965, 49.8892345], [10.8874449, 49.88917], [10.8875561, 49.8891148], [10.88762, 49.8891487], [10.8876596, 49.8891698], [10.8876392, 49.8891895], [10.8875886, 49.8892385], [10.8875714, 49.8892331], [10.8875219, 49.8893022]]]}}, {"type": "Feature", "properties": {"name": "Buger Hof", "addr:city": "Bamberg", "addr:street": "Am Regnitzufer", "addr:postcode": "96049", "kloepsce:postal_code": "96049", "cluster": "cluster_96_24", "kloepsce:id": "96#24", "kloepsce:name": "96#24 Buger Hof"}, "geometry": {"type": "Polygon", "coordinates": [[[10.9069878, 49.8676554], [10.907125, 49.867496], [10.9072471, 49.8675397], [10.9072782, 49.8675509], [10.9073258, 49.8675679], [10.9071886, 49.8677273], [10.9069878, 49.8676554]]]}}, {"type": "Feature", "properties": {"name": "Boutique Hotel Villa Katharina", "addr:city": "Bamberg", "addr:street": "Panzerleite", "addr:postcode": "96049", "kloepsce:postal_code": "96049", "cluster": "cluster_96_25", "kloepsce:id": "96#25", "kloepsce:name": "96#25 Boutique Hotel Villa Katharina"}, "geometry": {"type": "Polygon", "coordinates": [[[10.8793442, 49.8861039], [10.8790519, 49.8861032], [10.8790529, 49.8859401], [10.8791633, 49.8859404], [10.8791627, 49.8860401], [10.8793446, 49.8860406], [10.8793442, 49.8861039]]]}}, {"type": "Feature", "properties": {"name": "Hotel Altenburgblick", "addr:city": "Bamberg", "addr:street": "Panzerleite", "addr:postcode": "96049", "stars": "3", "kloepsce:postal_code": "96049", "cluster": "cluster_96_26", "kloepsce:id": "96#26", "kloepsce:name": "96#26 Hotel Altenburgblick"}, "geometry": {"type": "Polygon", "coordinates": [[[10.8808089, 49.883952], [10.8808538, 49.8838209], [10.8808017, 49.8838135], [10.8808664, 49.8836247], [10.881068, 49.8836533], [10.8810393, 49.883737], [10.8810681, 49.8837411], [10.8810516, 49.8837893], [10.8810173, 49.8837844], [10.8809528, 49.8839725], [10.8808089, 49.883952]]]}}, {"type": "Feature", "properties": {"name": "Brauerei-Gasthof H\u00f6hn", "addr:city": "Memmelsdorf", "addr:street": "Hauptstra\u00dfe", "addr:postcode": "96117", "kloepsce:postal_code": "96117", "cluster": "cluster_96_27", "kloepsce:id": "96#27", "kloepsce:name": "96#27 Brauerei-Gasthof H\u00f6hn"}, "geometry": {"type": "Polygon", "coordinates": [[[10.9527751, 49.932491], [10.9528475, 49.9326313], [10.9527048, 49.9326558], [10.9526445, 49.9325439], [10.9526354, 49.9325228], [10.9527751, 49.932491]]]}}, {"type": "Feature", "properties": {"name": "Drei Kronen", "addr:city": "Memmelsdorf", "addr:street": "Hauptstra\u00dfe", "addr:postcode": "96117", "kloepsce:postal_code": "96117", "cluster": "cluster_96_28", "kloepsce:id": "96#28", "kloepsce:name": "96#28 Drei Kronen"}, "geometry": {"type": "Polygon", "coordinates": [[[10.9530992, 49.9329689], [10.9531596, 49.9331079], [10.9529289, 49.9331495], [10.9528685, 49.9330104], [10.9530992, 49.9329689]]]}}, {"type": "Feature", "properties": {"name": "Hotel Panorama", "addr:city": "Niederf\u00fcllbach", "addr:street": "Jean-Paul-Weg", "addr:postcode": "96489", "kloepsce:postal_code": "96489", "cluster": "cluster_96_29", "kloepsce:id": "96#29", "kloepsce:name": "96#29 Hotel Panorama"}, "geometry": {"type": "Polygon", "coordinates": [[[10.9849806, 50.213882], [10.984978, 50.2136346], [10.9852371, 50.2136334], [10.9852397, 50.2138808], [10.9849806, 50.213882]]]}}, {"type": "Feature", "properties": {"name": "Fr\u00e4nkische Landherberge", "addr:city": "Se\u00dflach", "addr:street": "Hans-Reiser-Stra\u00dfe", "addr:postcode": "96145", "kloepsce:postal_code": "96145", "cluster": "cluster_96_30", "kloepsce:id": "96#30", "kloepsce:name": "96#30 Fr\u00e4nkische Landherberge"}, "geometry": {"type": "Polygon", "coordinates": [[[10.8478274, 50.1915726], [10.8475333, 50.1913742], [10.8476539, 50.1913131], [10.8478444, 50.1912166], [10.8482358, 50.1915262], [10.848132, 50.1915779], [10.8478391, 50.1913443], [10.8477559, 50.191391], [10.8477371, 50.1914015], [10.8479184, 50.1915155], [10.8478274, 50.1915726]]]}}, {"type": "Feature", "properties": {"name": "Hotel Am Markt", "addr:city": "Buttenheim", "addr:street": "Marktstra\u00dfe", "addr:postcode": "96155", "kloepsce:postal_code": "96155", "cluster": "cluster_96_31", "kloepsce:id": "96#31", "kloepsce:name": "96#31 Hotel Am Markt"}, "geometry": {"type": "Polygon", "coordinates": [[[11.0323381, 49.8021758], [11.0322444, 49.8023073], [11.032163, 49.8022831], [11.0321316, 49.8022738], [11.0322253, 49.8021423], [11.0323381, 49.8021758]]]}}, {"type": "Feature", "properties": {"name": "Landhotel Schlo\u00df Buttenheim", "addr:city": "Buttenheim", "addr:street": "Schlo\u00dfstra\u00dfe", "addr:postcode": "96155", "kloepsce:postal_code": "96155", "cluster": "cluster_96_32", "kloepsce:id": "96#32", "kloepsce:name": "96#32 Landhotel Schlo\u00df Buttenheim"}, "geometry": {"type": "Polygon", "coordinates": [[[11.0298095, 49.8007929], [11.0297575, 49.8009578], [11.0296316, 49.8009413], [11.0296836, 49.8007764], [11.0297657, 49.8007872], [11.0298095, 49.8007929]]]}}, {"type": "Feature", "properties": {"name": "Hotel Christel", "addr:city": "Strullendorf", "addr:street": "Forchheimer Stra\u00dfe", "addr:postcode": "96129", "kloepsce:postal_code": "96129", "cluster": "cluster_96_33", "kloepsce:id": "96#33", "kloepsce:name": "96#33 Hotel Christel"}, "geometry": {"type": "Polygon", "coordinates": [[[10.9716357, 49.8429241], [10.9715849, 49.8429741], [10.9714738, 49.8429271], [10.9716112, 49.842792], [10.9717086, 49.8428332], [10.9717435, 49.842799], [10.9721017, 49.8429505], [10.9719802, 49.8430699], [10.9716357, 49.8429241]]]}}, {"type": "Feature", "properties": {"name": "Bergmannsklause", "addr:city": "Steinach", "addr:street": "Tierberg", "addr:postcode": "96523", "kloepsce:postal_code": "96523", "cluster": "cluster_96_34", "kloepsce:id": "96#34", "kloepsce:name": "96#34 Bergmannsklause"}, "geometry": {"type": "Polygon", "coordinates": [[[11.1665973, 50.4539897], [11.1666249, 50.4539738], [11.1666021, 50.4539578], [11.1667879, 50.4538503], [11.166905, 50.4539323], [11.1667233, 50.4540374], [11.1667015, 50.4540222], [11.1666697, 50.4540405], [11.1665973, 50.4539897]]]}}, {"type": "Feature", "properties": {"name": "Hopfenhotel", "kloepsce:postal_code": "96050", "cluster": "cluster_96_35", "kloepsce:id": "96#35", "kloepsce:name": "96#35 Hopfenhotel"}, "geometry": {"type": "Polygon", "coordinates": [[[10.8955342, 49.8964896], [10.8954661, 49.8964783], [10.8954963, 49.8963832], [10.8955418, 49.8962821], [10.8956122, 49.8962953], [10.8956513, 49.8963027], [10.895647, 49.8963174], [10.8956124, 49.8964112], [10.8955595, 49.8964041], [10.8955342, 49.8964896]]]}}, {"type": "Feature", "properties": {"name": "Hotel-Gasthof Vier Jahreszeiten", "addr:city": "Breiteng\u00fc\u00dfbach", "addr:street": "Am Sportplatz", "addr:postcode": "96149", "kloepsce:postal_code": "96149", "cluster": "cluster_96_36", "kloepsce:id": "96#36", "kloepsce:name": "96#36 Hotel-Gasthof Vier Jahreszeiten"}, "geometry": {"type": "Polygon", "coordinates": [[[10.8918222, 49.9721285], [10.8921318, 49.972554], [10.8919558, 49.972607], [10.8918074, 49.972406], [10.8917906, 49.972382], [10.8917738, 49.9723581], [10.8917203, 49.9723736], [10.8916709, 49.9723032], [10.8916158, 49.9722302], [10.8915921, 49.9721973], [10.8917508, 49.97215], [10.8918222, 49.9721285]]]}}, {"type": "Feature", "properties": {"name": "Landhaus Fink", "addr:city": "Coburg", "addr:street": "L\u00fctzelbucher Stra\u00dfe", "addr:postcode": "96450", "kloepsce:postal_code": "96450", "cluster": "cluster_96_37", "kloepsce:id": "96#37", "kloepsce:name": "96#37 Landhaus Fink"}, "geometry": {"type": "Polygon", "coordinates": [[[11.0104518, 50.2568985], [11.0105467, 50.2568088], [11.0108595, 50.2569345], [11.0108897, 50.2569259], [11.0109247, 50.2569103], [11.0109067, 50.2568661], [11.0111355, 50.2568221], [11.0111993, 50.2569625], [11.0109633, 50.2570051], [11.0109527, 50.2569822], [11.0108555, 50.2570691], [11.0104518, 50.2568985]]]}}, {"type": "Feature", "properties": {"name": "Gasthof Schwarzer Adler", "addr:city": "Ebrach", "addr:street": "Am Anger", "addr:postcode": "96157", "kloepsce:postal_code": "96157", "cluster": "cluster_96_38", "kloepsce:id": "96#38", "kloepsce:name": "96#38 Gasthof Schwarzer Adler"}, "geometry": {"type": "Polygon", "coordinates": [[[10.4906742, 49.7997177], [10.4902942, 49.7996061], [10.4903483, 49.7995293], [10.4905915, 49.7996007], [10.4906402, 49.7995315], [10.4907192, 49.7995546], [10.4908082, 49.7995808], [10.4907688, 49.7996367], [10.4908259, 49.7996535], [10.4907911, 49.7997029], [10.4907029, 49.799677], [10.4906742, 49.7997177]]]}}, {"type": "Feature", "properties": {"name": "Waldhotel B\u00e4chlein", "stars": "3", "kloepsce:postal_code": "96268", "cluster": "cluster_96_39", "kloepsce:id": "96#39", "kloepsce:name": "96#39 Waldhotel B\u00e4chlein"}, "geometry": {"type": "Polygon", "coordinates": [[[11.2385214, 50.2648799], [11.2385239, 50.2638601], [11.2395921, 50.2638785], [11.2402598, 50.26403], [11.2409786, 50.2641328], [11.2409412, 50.2643312], [11.2406867, 50.2645422], [11.2404244, 50.2646897], [11.2395881, 50.2651646], [11.2385214, 50.2648799]]]}}, {"type": "Feature", "properties": {"name": "Hotel Bauer", "kloepsce:postal_code": "96317", "cluster": "cluster_96_40", "kloepsce:id": "96#40", "kloepsce:name": "96#40 Hotel Bauer"}, "geometry": {"type": "Polygon", "coordinates": [[[11.3249437, 50.2374025], [11.3248988, 50.2373135], [11.325159, 50.2372598], [11.3252039, 50.2373489], [11.3249437, 50.2374025]]]}}, {"type": "Feature", "properties": {"name": "Hotel Bauer", "addr:city": "Kronach", "addr:street": "Kulmbacher Stra\u00dfe", "addr:postcode": "96317", "kloepsce:postal_code": "96317", "cluster": "cluster_96_41", "kloepsce:id": "96#41", "kloepsce:name": "96#41 Hotel Bauer"}, "geometry": {"type": "Polygon", "coordinates": [[[11.32441, 50.2375219], [11.3243695, 50.2373555], [11.3245933, 50.2373332], [11.3247969, 50.2372945], [11.3248006, 50.237348], [11.3245938, 50.2373871], [11.3246025, 50.2374279], [11.3245429, 50.2374364], [11.3245601, 50.2375069], [11.32441, 50.2375219]]]}}, {"type": "Feature", "properties": {"name": "Hotel-Gasthof Klosterkeller", "addr:city": "Kronach", "addr:street": "Amtsgerichtsstra\u00dfe", "addr:postcode": "96317", "kloepsce:postal_code": "96317", "cluster": "cluster_96_42", "kloepsce:id": "96#42", "kloepsce:name": "96#42 Hotel-Gasthof Klosterkeller"}, "geometry": {"type": "Polygon", "coordinates": [[[11.3242337, 50.2424459], [11.3242088, 50.2423572], [11.3243347, 50.2423427], [11.3245985, 50.2423114], [11.3246243, 50.2424004], [11.3244575, 50.2424202], [11.3242337, 50.2424459]]]}}, {"type": "Feature", "properties": {"name": "Gasthof \"Gr\u00fcner Baum\"", "addr:city": "Pommersfelden", "addr:street": "Hauptstra\u00dfe", "addr:postcode": "96178", "kloepsce:postal_code": "96178", "cluster": "cluster_96_43", "kloepsce:id": "96#43", "kloepsce:name": "96#43 Gasthof \"Gr\u00fcner Baum\""}, "geometry": {"type": "Polygon", "coordinates": [[[10.8193763, 49.7669795], [10.8193754, 49.7669003], [10.8193749, 49.7668484], [10.8193738, 49.7667495], [10.8195166, 49.7667489], [10.819518, 49.7668782], [10.819519, 49.7669789], [10.8193763, 49.7669795]]]}}, {"type": "Feature", "properties": {"name": "Hotel Stadt Coburg", "addr:city": "Coburg", "addr:street": "Lossaustra\u00dfe", "addr:postcode": "96450", "stars": "3", "kloepsce:postal_code": "96450", "cluster": "cluster_96_44", "kloepsce:id": "96#44", "kloepsce:name": "96#44 Hotel Stadt Coburg"}, "geometry": {"type": "Polygon", "coordinates": [[[10.9580617, 50.2651405], [10.957581, 50.2650742], [10.9576131, 50.2649789], [10.9576419, 50.2648937], [10.9579695, 50.2649389], [10.9580452, 50.2649494], [10.9580243, 50.2650113], [10.9581017, 50.265022], [10.9580617, 50.2651405]]]}}, {"type": "Feature", "properties": {"name": "Hotel Panorama", "addr:city": "Schl\u00fcsselfeld", "addr:postcode": "96132", "kloepsce:postal_code": "96132", "cluster": "cluster_96_45", "kloepsce:id": "96#45", "kloepsce:name": "96#45 Hotel Panorama"}, "geometry": {"type": "Polygon", "coordinates": [[[10.6302047, 49.7485683], [10.6300728, 49.7486478], [10.6301425, 49.7486961], [10.6300074, 49.7487776], [10.6297968, 49.7486318], [10.6300638, 49.7484708], [10.6302047, 49.7485683]]]}}, {"type": "Feature", "properties": {"name": "Gasthof Krone", "addr:city": "Schl\u00fcsselfeld", "addr:street": "Marktplatz", "addr:postcode": "96132", "kloepsce:postal_code": "96132", "cluster": "cluster_96_46", "kloepsce:id": "96#46", "kloepsce:name": "96#46 Gasthof Krone"}, "geometry": {"type": "Polygon", "coordinates": [[[10.6204125, 49.7569163], [10.6203669, 49.7568651], [10.6204785, 49.7568236], [10.6205241, 49.7568749], [10.6204787, 49.756892], [10.6204433, 49.7569047], [10.6204125, 49.7569163]]]}}, {"type": "Feature", "properties": {"name": "Zum Storch", "addr:city": "Schl\u00fcsselfeld", "addr:street": "Marktplatz", "addr:postcode": "96132", "stars": "3", "kloepsce:postal_code": "96132", "cluster": "cluster_96_47", "kloepsce:id": "96#47", "kloepsce:name": "96#47 Zum Storch"}, "geometry": {"type": "Polygon", "coordinates": [[[10.6194183, 49.7566561], [10.6192335, 49.7566696], [10.6191992, 49.7564749], [10.6193479, 49.756464], [10.619384, 49.7564613], [10.6194183, 49.7566561]]]}}, {"type": "Feature", "properties": {"name": "Sporthotel Windfelder am See", "kloepsce:postal_code": "96135", "cluster": "cluster_96_48", "kloepsce:id": "96#48", "kloepsce:name": "96#48 Sporthotel Windfelder am See"}, "geometry": {"type": "Polygon", "coordinates": [[[10.8422266, 49.8620535], [10.8420031, 49.8617752], [10.8427449, 49.8615277], [10.8429683, 49.861806], [10.8422266, 49.8620535]]]}}, {"type": "Feature", "properties": {"name": "Hotel Schuberths am Schloss", "addr:city": "Buttenheim", "addr:street": "Schlo\u00dfstra\u00dfe", "addr:postcode": "96155", "kloepsce:postal_code": "96155", "cluster": "cluster_96_49", "kloepsce:id": "96#49", "kloepsce:name": "96#49 Hotel Schuberths am Schloss"}, "geometry": {"type": "Polygon", "coordinates": [[[11.0295675, 49.8003827], [11.0295879, 49.8002731], [11.0298852, 49.800297], [11.0298585, 49.800439], [11.0296187, 49.8004198], [11.0296118, 49.8004359], [11.0295978, 49.8004467], [11.0295785, 49.8004532], [11.0295568, 49.8004544], [11.029536, 49.8004502], [11.0295193, 49.8004412], [11.0295092, 49.8004287], [11.0295073, 49.8004147], [11.0295138, 49.8004013], [11.0295278, 49.8003906], [11.0295471, 49.800384], [11.0295675, 49.8003827]]]}}, {"type": "Feature", "properties": {"name": "Hotel/Landgasthof Detsch", "kloepsce:postal_code": "96342", "cluster": "cluster_96_50", "kloepsce:id": "96#50", "kloepsce:name": "96#50 Hotel/Landgasthof Detsch"}, "geometry": {"type": "Polygon", "coordinates": [[[11.2768827, 50.2800094], [11.2770358, 50.2799792], [11.2771392, 50.280193], [11.2768386, 50.2802523], [11.2768102, 50.2801935], [11.2769576, 50.2801644], [11.2768827, 50.2800094]]]}}, {"type": "Feature", "properties": {"name": "Zum Gr\u00fcnen Baum", "addr:city": "Sonneberg", "addr:street": "Neustadter Stra\u00dfe", "addr:postcode": "96515", "kloepsce:postal_code": "96515", "cluster": "cluster_96_51", "kloepsce:id": "96#51", "kloepsce:name": "96#51 Zum Gr\u00fcnen Baum"}, "geometry": {"type": "Polygon", "coordinates": [[[11.1468316, 50.3449206], [11.1467894, 50.3447785], [11.1469018, 50.3447649], [11.1468926, 50.3447337], [11.1469705, 50.3447243], [11.1469773, 50.3447472], [11.1471789, 50.3447229], [11.1472, 50.3447939], [11.147215, 50.3448444], [11.1471629, 50.3448506], [11.1469778, 50.344873], [11.1469864, 50.3449019], [11.1468316, 50.3449206]]]}}, {"type": "Feature", "properties": {"name": "Hotel Sonne", "addr:city": "Sche\u00dflitz", "addr:street": "Fr\u00e4nkische-Schweiz-Stra\u00dfe", "addr:postcode": "96110", "kloepsce:postal_code": "96110", "cluster": "cluster_96_52", "kloepsce:id": "96#52", "kloepsce:name": "96#52 Hotel Sonne"}, "geometry": {"type": "Polygon", "coordinates": [[[11.0858846, 49.9805131], [11.0855515, 49.9806099], [11.0855346, 49.9805856], [11.0851985, 49.9806833], [11.0851483, 49.9806114], [11.0853853, 49.9805425], [11.0853708, 49.9805219], [11.0855727, 49.9804632], [11.0855518, 49.9804333], [11.0856803, 49.980396], [11.0856591, 49.9803656], [11.0857609, 49.980336], [11.0858846, 49.9805131]]]}}, {"type": "Feature", "properties": {"name": "Landhaus Friesen", "addr:city": "Hirschaid", "addr:street": "Auf der Klinge", "addr:postcode": "96114", "kloepsce:postal_code": "96114", "cluster": "cluster_96_53", "kloepsce:id": "96#53", "kloepsce:name": "96#53 Landhaus Friesen"}, "geometry": {"type": "Polygon", "coordinates": [[[11.0309774, 49.8360081], [11.0309777, 49.8360315], [11.0308132, 49.8360323], [11.0308141, 49.8361081], [11.0308799, 49.8361078], [11.030881, 49.8361999], [11.0307231, 49.8362007], [11.0307219, 49.8361086], [11.0307636, 49.8361084], [11.0307626, 49.8360326], [11.030708, 49.8360329], [11.0307067, 49.8359284], [11.0309764, 49.8359271], [11.0309767, 49.8359538], [11.0310281, 49.8359535], [11.0310277, 49.8359184], [11.0312008, 49.8359175], [11.0312024, 49.8360494], [11.0310293, 49.8360503], [11.0310288, 49.8360078], [11.0309774, 49.8360081]]]}}, {"type": "Feature", "properties": {"name": "Hotel Alte Post", "addr:city": "Weismain", "addr:street": "Am Markt", "addr:postcode": "96260", "kloepsce:postal_code": "96260", "cluster": "cluster_96_54", "kloepsce:id": "96#54", "kloepsce:name": "96#54 Hotel Alte Post"}, "geometry": {"type": "Polygon", "coordinates": [[[11.2395705, 50.0849646], [11.2394619, 50.0849275], [11.2394864, 50.084898], [11.239443, 50.0848831], [11.2393684, 50.0848576], [11.2394546, 50.0847539], [11.2396775, 50.084833], [11.2396089, 50.0849212], [11.2395705, 50.0849646]]]}}, {"type": "Feature", "properties": {"name": "Gasthof Zur Krone", "addr:city": "Weismain", "addr:street": "Am Markt", "addr:postcode": "96260", "kloepsce:postal_code": "96260", "cluster": "cluster_96_55", "kloepsce:id": "96#55", "kloepsce:name": "96#55 Gasthof Zur Krone"}, "geometry": {"type": "Polygon", "coordinates": [[[11.2403623, 50.0847432], [11.2404566, 50.084785], [11.2404778, 50.0847944], [11.2403365, 50.0849239], [11.2402346, 50.0848791], [11.2403506, 50.0847538], [11.2403623, 50.0847432]]]}}, {"type": "Feature", "properties": {"name": "VHC Hotel Strohofer", "kloepsce:postal_code": "96160", "cluster": "cluster_96_56", "kloepsce:id": "96#56", "kloepsce:name": "96#56 VHC Hotel Strohofer"}, "geometry": {"type": "Polygon", "coordinates": [[[10.469206, 49.7661907], [10.4695087, 49.765941], [10.4694491, 49.7659041], [10.4695154, 49.7658453], [10.4697796, 49.7659774], [10.4696937, 49.7660475], [10.4697131, 49.7660609], [10.4696025, 49.7661627], [10.4696159, 49.7661757], [10.469573, 49.766213], [10.4695529, 49.7662052], [10.4694845, 49.7662615], [10.469447, 49.7662442], [10.4693977, 49.7662864], [10.469206, 49.7661907]]]}}, {"type": "Feature", "properties": {"name": "Landgasthof Morgenthum", "addr:city": "D\u00f6rfles-Esbach", "addr:street": "Lauterbergstra\u00dfe", "addr:postcode": "96487", "kloepsce:postal_code": "96487", "cluster": "cluster_96_57", "kloepsce:id": "96#57", "kloepsce:name": "96#57 Landgasthof Morgenthum"}, "geometry": {"type": "Polygon", "coordinates": [[[11.0010094, 50.2922761], [11.0008376, 50.292185], [11.0007989, 50.2921645], [11.0008943, 50.292091], [11.0011048, 50.2922026], [11.0010094, 50.2922761]]]}}, {"type": "Feature", "properties": {"name": "Jagdhaus", "kloepsce:postal_code": "96114", "cluster": "cluster_96_58", "kloepsce:id": "96#58", "kloepsce:name": "96#58 Jagdhaus"}, "geometry": {"type": "Polygon", "coordinates": [[[10.988539, 49.8159077], [10.9884373, 49.815856], [10.9885553, 49.8157593], [10.9885683, 49.8157486], [10.98867, 49.8158003], [10.988539, 49.8159077]]]}}, {"type": "Feature", "properties": {"name": "Hotel H\u00fcttensteinach", "addr:city": "Sonneberg", "addr:street": "Steinacher Stra\u00dfe", "addr:postcode": "96515", "kloepsce:postal_code": "96515", "cluster": "cluster_96_59", "kloepsce:id": "96#59", "kloepsce:name": "96#59 Hotel H\u00fcttensteinach"}, "geometry": {"type": "Polygon", "coordinates": [[[11.2082401, 50.3633156], [11.2085007, 50.3633877], [11.2083936, 50.3635451], [11.2083068, 50.3635211], [11.2082579, 50.3635929], [11.2080896, 50.3635463], [11.2080605, 50.363589], [11.2081135, 50.3636037], [11.2080906, 50.3636373], [11.2080264, 50.3636195], [11.2079918, 50.3636703], [11.2078117, 50.3636205], [11.2078999, 50.3634908], [11.2079786, 50.3635126], [11.2080212, 50.3634499], [11.2081285, 50.3634796], [11.2082401, 50.3633156]]]}}, {"type": "Feature", "properties": {"name": "Frankenh\u00f6he", "addr:city": "Weismain", "addr:postcode": "96260", "kloepsce:postal_code": "96260", "cluster": "cluster_96_60", "kloepsce:id": "96#60", "kloepsce:name": "96#60 Frankenh\u00f6he"}, "geometry": {"type": "Polygon", "coordinates": [[[11.2025812, 50.0429005], [11.2025194, 50.0427981], [11.2025674, 50.0427862], [11.2025245, 50.042715], [11.2031407, 50.0425616], [11.2032, 50.0426599], [11.2031123, 50.0426817], [11.2031793, 50.0427928], [11.203029, 50.0428302], [11.2029782, 50.0427459], [11.2027941, 50.0427918], [11.2028234, 50.0428403], [11.2025812, 50.0429005]]]}}, {"type": "Feature", "properties": {"name": "Ibis", "addr:city": "Bamberg", "addr:street": "Theatergassen", "addr:postcode": "96047", "stars": "2", "kloepsce:postal_code": "96047", "cluster": "cluster_96_61", "kloepsce:id": "96#61", "kloepsce:name": "96#61 Ibis"}, "geometry": {"type": "Polygon", "coordinates": [[[10.8907405, 49.8909442], [10.8907394, 49.8910616], [10.8906995, 49.891064], [10.8906788, 49.8910653], [10.8905287, 49.8910763], [10.8904951, 49.8909561], [10.8907189, 49.8909451], [10.8907269, 49.8909448], [10.8907405, 49.8909442]]]}}, {"type": "Feature", "properties": {"name": "Landhotel Geiselwind", "addr:city": "Geiselwind", "addr:street": "Friedrichstra\u00dfe", "addr:postcode": "96160", "kloepsce:postal_code": "96160", "cluster": "cluster_96_62", "kloepsce:id": "96#62", "kloepsce:name": "96#62 Landhotel Geiselwind"}, "geometry": {"type": "Polygon", "coordinates": [[[10.4707437, 49.7785567], [10.4711741, 49.778527], [10.4711482, 49.7783703], [10.471328, 49.7783579], [10.471351, 49.7784966], [10.4713807, 49.7785118], [10.4713972, 49.7786113], [10.4711843, 49.778626], [10.4711978, 49.7787078], [10.4709882, 49.7787222], [10.4709731, 49.7786308], [10.4707584, 49.7786457], [10.4707437, 49.7785567]]]}}, {"type": "Feature", "properties": {"name": "Landhotel zur Alten Kaserne / Gasthaus Zum Stadl", "addr:city": "Ebern", "addr:street": "Im Frauengrund", "addr:postcode": "96106", "kloepsce:postal_code": "96106", "cluster": "cluster_96_63", "kloepsce:id": "96#63", "kloepsce:name": "96#63 Landhotel zur Alten Kaserne / Gasthaus Zum Stadl"}, "geometry": {"type": "Polygon", "coordinates": [[[10.7757654, 50.0944026], [10.7754227, 50.0939616], [10.775589, 50.0939084], [10.7759317, 50.0943494], [10.7757654, 50.0944026]]]}}, {"type": "Feature", "properties": {"name": "Hotel Stern", "kloepsce:postal_code": "96160", "cluster": "cluster_96_64", "kloepsce:id": "96#64", "kloepsce:name": "96#64 Hotel Stern"}, "geometry": {"type": "Polygon", "coordinates": [[[10.4697866, 49.7729558], [10.4697008, 49.7727728], [10.4697536, 49.7727625], [10.4696556, 49.7725541], [10.4696066, 49.7725637], [10.4695622, 49.7724698], [10.4697282, 49.7724371], [10.4699575, 49.7729224], [10.4697866, 49.7729558]]]}}, {"type": "Feature", "properties": {"name": "Gasthof Z\u00f6llner", "kloepsce:postal_code": "96260", "cluster": "cluster_96_65", "kloepsce:id": "96#65", "kloepsce:name": "96#65 Gasthof Z\u00f6llner"}, "geometry": {"type": "Polygon", "coordinates": [[[11.2019965, 50.0188172], [11.2020274, 50.0186779], [11.202308, 50.0187036], [11.202277, 50.018843], [11.2019965, 50.0188172]]]}}, {"type": "Feature", "properties": {"name": "Hotel-Gasthof Drei Kronen", "addr:city": "Burgkunstadt", "addr:street": "Lichtenfelser Stra\u00dfe", "addr:postcode": "96224", "kloepsce:postal_code": "96224", "cluster": "cluster_96_66", "kloepsce:id": "96#66", "kloepsce:name": "96#66 Hotel-Gasthof Drei Kronen"}, "geometry": {"type": "Polygon", "coordinates": [[[11.2447507, 50.1424602], [11.2451678, 50.14228], [11.2452651, 50.1423725], [11.245346, 50.1423375], [11.2454239, 50.1424116], [11.2454608, 50.1424467], [11.2451211, 50.1425935], [11.245078, 50.1425526], [11.2450367, 50.1425704], [11.2450445, 50.1425779], [11.2449276, 50.1426284], [11.2447507, 50.1424602]]]}}, {"type": "Feature", "properties": {"name": "Hotel Waldblick", "addr:city": "Sonneberg", "addr:street": "M\u00f6nchsberger Stra\u00dfe", "addr:postcode": "96515", "kloepsce:postal_code": "96515", "cluster": "cluster_96_67", "kloepsce:id": "96#67", "kloepsce:name": "96#67 Hotel Waldblick"}, "geometry": {"type": "Polygon", "coordinates": [[[11.2211373, 50.3529059], [11.2210679, 50.3529991], [11.2207504, 50.3529028], [11.2207858, 50.3528552], [11.2206939, 50.3528273], [11.2207278, 50.3527818], [11.2211373, 50.3529059]]]}}, {"type": "Feature", "properties": {"name": "Sporthotel Outdoor Inn", "addr:city": "Steinach", "addr:street": "Am Bahnhof", "addr:postcode": "96523", "kloepsce:postal_code": "96523", "cluster": "cluster_96_68", "kloepsce:id": "96#68", "kloepsce:name": "96#68 Sporthotel Outdoor Inn"}, "geometry": {"type": "Polygon", "coordinates": [[[11.1584241, 50.4324265], [11.1583233, 50.4323819], [11.1581657, 50.4325263], [11.1579921, 50.4324493], [11.1580539, 50.4323927], [11.1580132, 50.4323747], [11.1580761, 50.432317], [11.1581076, 50.4323309], [11.1581551, 50.4322875], [11.1581082, 50.4322667], [11.1581985, 50.432184], [11.158529, 50.4323305], [11.1584241, 50.4324265]]]}}, {"type": "Feature", "properties": {"name": "G\u00e4stehaus L\u00f6hnert", "addr:city": "Coburg", "addr:street": "Schustersdamm", "addr:postcode": "96450", "kloepsce:postal_code": "96450", "cluster": "cluster_96_69", "kloepsce:id": "96#69", "kloepsce:name": "96#69 G\u00e4stehaus L\u00f6hnert"}, "geometry": {"type": "Polygon", "coordinates": [[[10.9231111, 50.2577569], [10.9234234, 50.2577377], [10.9236798, 50.2575132], [10.923826, 50.2575815], [10.9236182, 50.2577633], [10.9235775, 50.2577443], [10.9235409, 50.2577764], [10.9235471, 50.2578117], [10.9235571, 50.2578684], [10.9233696, 50.257882], [10.9233559, 50.2579138], [10.9232399, 50.2579209], [10.9232346, 50.2578859], [10.9231315, 50.2578922], [10.9231111, 50.2577569]]]}}, {"type": "Feature", "properties": {"addr:city": "Wallenfels", "addr:street": "Sch\u00fctzenstra\u00dfe", "addr:postcode": "96346", "kloepsce:postal_code": "96346", "cluster": "cluster_96_70", "kloepsce:id": "96#70", "kloepsce:name": "96#70"}, "geometry": {"type": "Polygon", "coordinates": [[[11.4636139, 50.2719379], [11.4637731, 50.2718366], [11.4637513, 50.2718226], [11.4638365, 50.2717684], [11.4639687, 50.2718533], [11.4639117, 50.2718895], [11.4640048, 50.2719492], [11.4638931, 50.2720202], [11.4638009, 50.271961], [11.4637251, 50.2720093], [11.4636139, 50.2719379]]]}}, {"type": "Feature", "properties": {"name": "Hotel Victoria", "addr:city": "Coburg", "addr:street": "Ketschendorfer Stra\u00dfe", "addr:postcode": "96450", "stars": "3", "kloepsce:postal_code": "96450", "cluster": "cluster_96_71", "kloepsce:id": "96#71", "kloepsce:name": "96#71 Hotel Victoria"}, "geometry": {"type": "Polygon", "coordinates": [[[10.9642777, 50.2550694], [10.9640906, 50.2550496], [10.9641148, 50.2549562], [10.9641377, 50.2548682], [10.9643248, 50.2548881], [10.9643071, 50.2549563], [10.9643257, 50.2549585], [10.9643111, 50.2550135], [10.964292, 50.2550118], [10.9642777, 50.2550694]]]}}, {"type": "Feature", "properties": {"name": "Ibis Budget", "addr:city": "Bamberg", "addr:street": "Ludwigstra\u00dfe", "addr:postcode": "96052", "kloepsce:postal_code": "96052", "cluster": "cluster_96_72", "kloepsce:id": "96#72", "kloepsce:name": "96#72 Ibis Budget"}, "geometry": {"type": "Polygon", "coordinates": [[[10.8972797, 49.9022372], [10.8971369, 49.9023466], [10.896833, 49.9021821], [10.8965479, 49.9024006], [10.8964507, 49.902348], [10.896375, 49.9023071], [10.8967015, 49.9020569], [10.8968029, 49.9019791], [10.8972797, 49.9022372]]]}}, {"type": "Feature", "properties": {"name": "Kurhotel Bad Rodach", "addr:city": "Bad Rodach", "addr:street": "Kurring", "addr:postcode": "96476", "kloepsce:postal_code": "96476", "cluster": "cluster_96_73", "kloepsce:id": "96#73", "kloepsce:name": "96#73 Kurhotel Bad Rodach"}, "geometry": {"type": "Polygon", "coordinates": [[[10.7666102, 50.3324287], [10.7661796, 50.3325429], [10.7661274, 50.3324628], [10.7661002, 50.33247], [10.766051, 50.3323944], [10.7664509, 50.3322883], [10.7664796, 50.3323323], [10.7664881, 50.3323301], [10.7665065, 50.3323584], [10.7665559, 50.3323453], [10.7665774, 50.3323392], [10.7665161, 50.3322837], [10.7667345, 50.3321855], [10.7668933, 50.3323293], [10.7666749, 50.3324275], [10.7666601, 50.3324142], [10.7666102, 50.3324287]]]}}, {"type": "Feature", "properties": {"name": "Romantik Hotel Goldene Traube", "addr:city": "Coburg", "addr:street": "Am Viktoriabrunnen", "addr:postcode": "96450", "stars": "4", "kloepsce:postal_code": "96450", "cluster": "cluster_96_74", "kloepsce:id": "96#74", "kloepsce:name": "96#74 Romantik Hotel Goldene Traube"}, "geometry": {"type": "Polygon", "coordinates": [[[10.9621323, 50.2583315], [10.9618773, 50.2584664], [10.9619119, 50.2584941], [10.9618491, 50.2585239], [10.9618221, 50.2585322], [10.9617615, 50.2584761], [10.9617171, 50.2584042], [10.9618037, 50.2583827], [10.9618102, 50.2583959], [10.9618513, 50.2583862], [10.9618297, 50.2583481], [10.9617571, 50.2583619], [10.9617528, 50.2583509], [10.9617117, 50.2583384], [10.9616965, 50.2583107], [10.9617171, 50.2582824], [10.9617106, 50.2582706], [10.9617441, 50.2582637], [10.9617279, 50.2582229], [10.9616803, 50.2581827], [10.9618221, 50.2581184], [10.9618578, 50.2581537], [10.9619704, 50.2581149], [10.9619758, 50.2581287], [10.9620559, 50.2581128], [10.962123, 50.2582533], [10.962097, 50.2582588], [10.9621124, 50.2582906], [10.9621323, 50.2583315]]]}}, {"type": "Feature", "properties": {"addr:city": "Burgkunstadt", "addr:street": "Lichtenfelser Stra\u00dfe", "addr:postcode": "96224", "kloepsce:postal_code": "96224", "cluster": "cluster_96_75", "kloepsce:id": "96#75", "kloepsce:name": "96#75"}, "geometry": {"type": "Polygon", "coordinates": [[[11.2440766, 50.1429258], [11.2440486, 50.1428979], [11.2440079, 50.1429147], [11.2439284, 50.1428355], [11.2440772, 50.1427741], [11.2441847, 50.1428812], [11.2440766, 50.1429258]]]}}, {"type": "Feature", "properties": {"name": "Berghotel Zum Silbersattel", "addr:city": "Steinach", "addr:street": "Stra\u00dfe zum Silbersattel", "addr:postcode": "96523", "kloepsce:postal_code": "96523", "cluster": "cluster_96_76", "kloepsce:id": "96#76", "kloepsce:name": "96#76 Berghotel Zum Silbersattel"}, "geometry": {"type": "Polygon", "coordinates": [[[11.1482633, 50.4409952], [11.1482571, 50.4410018], [11.1481695, 50.4409684], [11.1481752, 50.4409623], [11.1480778, 50.4409252], [11.1481735, 50.4408234], [11.1482654, 50.4408584], [11.1482413, 50.4408841], [11.1483578, 50.4409285], [11.1483824, 50.4409023], [11.1484812, 50.4409399], [11.1483854, 50.4410418], [11.1482633, 50.4409952]]]}}, {"type": "Feature", "properties": {"name": "Gasthof Sommer", "addr:city": "Lautertal", "addr:street": "Frankenstra\u00dfe", "addr:postcode": "96486", "kloepsce:postal_code": "96486", "cluster": "cluster_96_77", "kloepsce:id": "96#77", "kloepsce:name": "96#77 Gasthof Sommer"}, "geometry": {"type": "Polygon", "coordinates": [[[10.9785679, 50.3107306], [10.9785872, 50.3106945], [10.9785135, 50.3106784], [10.9785688, 50.3105749], [10.9788004, 50.3106254], [10.9787453, 50.3107284], [10.9787115, 50.310721], [10.9786893, 50.3107626], [10.9788492, 50.3107975], [10.978796, 50.310897], [10.978699, 50.3108758], [10.978512, 50.3108351], [10.9785679, 50.3107306]]]}}, {"type": "Feature", "properties": {"name": "Zum Kutscher", "addr:city": "Bad Staffelstein", "addr:street": "Oberlangheimer Stra\u00dfe", "addr:postcode": "96231", "kloepsce:postal_code": "96231", "cluster": "cluster_96_78", "kloepsce:id": "96#78", "kloepsce:name": "96#78 Zum Kutscher"}, "geometry": {"type": "Polygon", "coordinates": [[[11.0698465, 50.0868022], [11.0697373, 50.0866169], [11.0699914, 50.0865558], [11.0700335, 50.0866279], [11.0699052, 50.0866587], [11.0699698, 50.0867737], [11.0698465, 50.0868022]]]}}, {"type": "Feature", "properties": {"name": "Posthotel", "addr:city": "Ludwigsstadt", "addr:street": "Orlam\u00fcnder Stra\u00dfe", "addr:postcode": "96337", "kloepsce:postal_code": "96337", "cluster": "cluster_96_79", "kloepsce:id": "96#79", "kloepsce:name": "96#79 Posthotel"}, "geometry": {"type": "Polygon", "coordinates": [[[11.3714106, 50.5087484], [11.3712908, 50.5091506], [11.3711245, 50.5091306], [11.3711707, 50.5089754], [11.371116, 50.5089688], [11.3711294, 50.5089238], [11.3710318, 50.5089121], [11.3710712, 50.5087797], [11.3711696, 50.5087916], [11.3711903, 50.5087219], [11.3714106, 50.5087484]]]}}, {"type": "Feature", "properties": {"name": "Hotel Krone", "addr:city": "Geiselwind", "addr:street": "Kirchplatz", "addr:postcode": "96160", "kloepsce:postal_code": "96160", "cluster": "cluster_96_80", "kloepsce:id": "96#80", "kloepsce:name": "96#80 Hotel Krone"}, "geometry": {"type": "Polygon", "coordinates": [[[10.4710109, 49.7729054], [10.4708705, 49.7728532], [10.4709629, 49.7727496], [10.4711033, 49.7728018], [10.4710109, 49.7729054]]]}}, {"type": "Feature", "properties": {"addr:city": "Hollfeld", "addr:postcode": "96142", "kloepsce:postal_code": "96142", "cluster": "cluster_96_81", "kloepsce:id": "96#81", "kloepsce:name": "96#81"}, "geometry": {"type": "Polygon", "coordinates": [[[11.3548, 49.9349837], [11.3548868, 49.934875], [11.354929, 49.934889], [11.3549449, 49.9348691], [11.3550461, 49.9349026], [11.3550358, 49.9349154], [11.3554194, 49.9350424], [11.3553141, 49.9351742], [11.3552754, 49.9351614], [11.3552269, 49.9352222], [11.3550596, 49.9351668], [11.355144, 49.9350611], [11.3549296, 49.9349901], [11.3549065, 49.935019], [11.3548, 49.9349837]]]}}, {"type": "Feature", "properties": {"kloepsce:postal_code": "96523", "cluster": "cluster_96_82", "kloepsce:id": "96#82", "kloepsce:name": "96#82"}, "geometry": {"type": "Polygon", "coordinates": [[[11.1497338, 50.4311545], [11.149778, 50.4310571], [11.1499069, 50.4310808], [11.1499119, 50.4310698], [11.1498244, 50.4310537], [11.1498761, 50.4309395], [11.1502002, 50.430999], [11.1501337, 50.431146], [11.1500457, 50.4311298], [11.1500178, 50.4311916], [11.1499975, 50.4312034], [11.1497338, 50.4311545]]]}}, {"type": "Feature", "properties": {"name": "Stadthotel Lichtenfels", "addr:city": "Lichtenfels", "addr:street": "Bamberger Stra\u00dfe", "addr:postcode": "96215", "kloepsce:postal_code": "96215", "cluster": "cluster_96_83", "kloepsce:id": "96#83", "kloepsce:name": "96#83 Stadthotel Lichtenfels"}, "geometry": {"type": "Polygon", "coordinates": [[[11.0574979, 50.1445858], [11.0575497, 50.1443925], [11.0577238, 50.1444117], [11.0576943, 50.1445219], [11.0576391, 50.1445158], [11.0576246, 50.1445701], [11.0575824, 50.1445655], [11.0575747, 50.1445942], [11.0574979, 50.1445858]]]}}, {"type": "Feature", "properties": {"addr:city": "Stockheim", "addr:street": "Ludwigsst\u00e4dter Stra\u00dfe", "addr:postcode": "96342", "kloepsce:postal_code": "96342", "cluster": "cluster_96_84", "kloepsce:id": "96#84", "kloepsce:name": "96#84"}, "geometry": {"type": "Polygon", "coordinates": [[[11.2841909, 50.3261516], [11.2841894, 50.3257508], [11.2845714, 50.3257506], [11.2845744, 50.326155], [11.284351, 50.326153], [11.2841909, 50.3261516]]]}}, {"type": "Feature", "properties": {"name": "Rebhan\u2019s Business und Wellness Hotel", "addr:city": "Stockheim", "addr:street": "Ludwigsst\u00e4dter Stra\u00dfe", "addr:postcode": "96342", "kloepsce:postal_code": "96342", "cluster": "cluster_96_85", "kloepsce:id": "96#85", "kloepsce:name": "96#85 Rebhan\u2019s Business und Wellness Hotel"}, "geometry": {"type": "Polygon", "coordinates": [[[11.2828049, 50.3254713], [11.2828012, 50.3251544], [11.2831459, 50.3251528], [11.2831466, 50.3252089], [11.2836313, 50.3252067], [11.2836299, 50.3250791], [11.2838773, 50.325078], [11.2838816, 50.3254658], [11.2837671, 50.3254664], [11.2837673, 50.3254888], [11.2835169, 50.32549], [11.2829787, 50.3254926], [11.2829785, 50.3254734], [11.2828049, 50.3254713]]]}}, {"type": "Feature", "properties": {"name": "B&B Hotel Bamberg", "addr:city": "Bamberg", "addr:street": "Hartmannstra\u00dfe", "addr:postcode": "96050", "kloepsce:postal_code": "96050", "cluster": "cluster_96_86", "kloepsce:id": "96#86", "kloepsce:name": "96#86 B&B Hotel Bamberg"}, "geometry": {"type": "Polygon", "coordinates": [[[10.914462, 49.9000158], [10.9141936, 49.8999719], [10.9140817, 49.9001429], [10.9139082, 49.9000959], [10.9140908, 49.8998152], [10.9145147, 49.8998851], [10.914462, 49.9000158]]]}}, {"type": "Feature", "properties": {"name": "Hotel u. Gasthof Zum Ritter Von Schaumberg", "kloepsce:postal_code": "96528", "cluster": "cluster_96_87", "kloepsce:id": "96#87", "kloepsce:name": "96#87 Hotel u. Gasthof Zum Ritter Von Schaumberg"}, "geometry": {"type": "Polygon", "coordinates": [[[11.0523424, 50.4186746], [11.0522488, 50.418524], [11.0523248, 50.4185048], [11.0523141, 50.4184876], [11.0524107, 50.4184633], [11.0525149, 50.4186311], [11.0523424, 50.4186746]]]}}, {"type": "Feature", "properties": {"name": "Ibis Styles", "addr:city": "Coburg", "addr:street": "Sonntagsanger", "addr:postcode": "96450", "kloepsce:postal_code": "96450", "cluster": "cluster_96_88", "kloepsce:id": "96#88", "kloepsce:name": "96#88 Ibis Styles"}, "geometry": {"type": "Polygon", "coordinates": [[[10.9584036, 50.2588059], [10.9584277, 50.2587001], [10.9584822, 50.2584706], [10.9583155, 50.2584561], [10.9582976, 50.2585395], [10.9582479, 50.2585351], [10.9581298, 50.2585248], [10.9581646, 50.2583621], [10.9583325, 50.2583768], [10.9584221, 50.2583846], [10.958633, 50.258403], [10.9586929, 50.2581415], [10.9589068, 50.2581614], [10.958815, 50.2585643], [10.9586872, 50.2585524], [10.9586248, 50.2588265], [10.9584036, 50.2588059]]]}}, {"type": "Feature", "properties": {"name": "Hotel G\u00f6ller", "addr:city": "Hirschaid", "addr:street": "N\u00fcrnberger Stra\u00dfe", "addr:postcode": "96114", "kloepsce:postal_code": "96114", "cluster": "cluster_96_89", "kloepsce:id": "96#89", "kloepsce:name": "96#89 Hotel G\u00f6ller"}, "geometry": {"type": "Polygon", "coordinates": [[[10.9989366, 49.8106448], [11.0000008, 49.8112915], [10.9996889, 49.8115621], [10.9994309, 49.811425], [10.9991928, 49.8116138], [10.9983915, 49.8111533], [10.998297, 49.8110772], [10.9983433, 49.8110259], [10.9988615, 49.8106972], [10.9989366, 49.8106448]]]}}, {"type": "Feature", "properties": {"name": "Goldene Rose", "addr:city": "Grub a.Forst", "addr:street": "Coburger Stra\u00dfe", "addr:postcode": "96271", "kloepsce:postal_code": "96271", "cluster": "cluster_96_90", "kloepsce:id": "96#90", "kloepsce:name": "96#90 Goldene Rose"}, "geometry": {"type": "Polygon", "coordinates": [[[11.0213356, 50.2277949], [11.0211114, 50.2277829], [11.0209878, 50.2277763], [11.0207754, 50.2277645], [11.0207847, 50.227695], [11.02084, 50.227698], [11.020846, 50.2276465], [11.0208675, 50.2274961], [11.0208875, 50.2273418], [11.0211014, 50.2273538], [11.0210893, 50.2274418], [11.0211446, 50.2274449], [11.0211333, 50.2275117], [11.0211119, 50.2276611], [11.0211385, 50.2276626], [11.0213514, 50.227674], [11.0213356, 50.2277949]]]}}]}