{"type": "FeatureCollection", "features": [{"type": "Feature", "properties": {"name": "Tagungshaus Maria Rosenberg", "addr:city": "Waldfischbach-Burgalben", "addr:street": "Rosenbergstra\u00dfe", "addr:postcode": "67714", "kloepsce:postal_code": "67714", "cluster": "cluster_67_1", "kloepsce:id": "67#01", "kloepsce:name": "67#01 Tagungshaus Maria Rosenberg"}, "geometry": {"type": "Polygon", "coordinates": [[[7.6440043, 49.2747223], [7.6441326, 49.2747414], [7.6440994, 49.2748434], [7.6442764, 49.2748666], [7.6445312, 49.2749], [7.6444809, 49.2750634], [7.643936, 49.274992], [7.6439148, 49.2750607], [7.6440395, 49.275077], [7.6439661, 49.2753154], [7.6437252, 49.2752838], [7.6437347, 49.2752528], [7.6435999, 49.2752352], [7.6436147, 49.2751871], [7.6433072, 49.2751468], [7.6430198, 49.2751091], [7.6430333, 49.2750654], [7.6430488, 49.2750674], [7.64306, 49.2750312], [7.6430068, 49.2750242], [7.6430696, 49.2748199], [7.6433924, 49.2748622], [7.6433855, 49.2748847], [7.6435039, 49.2749003], [7.6435467, 49.2747612], [7.6438494, 49.2748008], [7.6438276, 49.2748715], [7.6439514, 49.2748743], [7.6440043, 49.2747223]], [[7.6433379, 49.2750486], [7.6435677, 49.2750786], [7.6435791, 49.2750414], [7.6437072, 49.2750582], [7.6437256, 49.274998], [7.6434823, 49.2749662], [7.6434861, 49.2749538], [7.6433716, 49.2749388], [7.6433379, 49.2750486]]]}}, {"type": "Feature", "properties": {"name": "Bremerhof", "addr:city": "Kaiserslautern", "addr:street": "Bremerhof", "addr:postcode": "67663", "kloepsce:postal_code": "67663", "cluster": "cluster_67_2", "kloepsce:id": "67#02", "kloepsce:name": "67#02 Bremerhof"}, "geometry": {"type": "Polygon", "coordinates": [[[7.7635259, 49.4167104], [7.7636535, 49.4167723], [7.7634877, 49.416917], [7.7634675, 49.4169072], [7.7633851, 49.4169791], [7.7632776, 49.4169269], [7.7633826, 49.4168354], [7.7635259, 49.4167104]]]}}, {"type": "Feature", "properties": {"name": "Residenz Hotel", "addr:city": "Limburgerhof", "addr:street": "Rheing\u00f6nheimer Weg", "addr:postcode": "67117", "kloepsce:postal_code": "67117", "cluster": "cluster_67_3", "kloepsce:id": "67#03", "kloepsce:name": "67#03 Residenz Hotel"}, "geometry": {"type": "Polygon", "coordinates": [[[8.3916279, 49.4265163], [8.3915638, 49.4265494], [8.3907519, 49.4264705], [8.3907916, 49.4263218], [8.3914075, 49.4263734], [8.3914098, 49.4263097], [8.3913632, 49.4262444], [8.3916082, 49.4261731], [8.3916629, 49.4263025], [8.3916279, 49.4265163]]]}}, {"type": "Feature", "properties": {"name": "Hotel Hasselberg", "addr:city": "Kaiserslautern", "addr:street": "Otterbacher Stra\u00dfe", "addr:postcode": "67659", "kloepsce:postal_code": "67659", "cluster": "cluster_67_4", "kloepsce:id": "67#04", "kloepsce:name": "67#04 Hotel Hasselberg"}, "geometry": {"type": "Polygon", "coordinates": [[[7.7623947, 49.468754], [7.7622647, 49.4687835], [7.7621394, 49.4685497], [7.7623245, 49.4685078], [7.7623084, 49.4684776], [7.7624373, 49.4684485], [7.7625644, 49.4684197], [7.7626275, 49.4685375], [7.7623867, 49.468592], [7.7624107, 49.4686367], [7.762373, 49.4686452], [7.7623404, 49.4686526], [7.7623947, 49.468754]]]}}, {"type": "Feature", "properties": {"name": "P\u00e4lzer Buwe", "addr:city": "Ha\u00dfloch", "addr:street": "Rathausplatz", "addr:postcode": "67454", "kloepsce:postal_code": "67454", "cluster": "cluster_67_5", "kloepsce:id": "67#05", "kloepsce:name": "67#05 P\u00e4lzer Buwe"}, "geometry": {"type": "Polygon", "coordinates": [[[8.2574175, 49.3626311], [8.2574191, 49.3627602], [8.2571608, 49.3627642], [8.2571616, 49.3628683], [8.2571257, 49.3628683], [8.2570184, 49.3628688], [8.257017, 49.3628335], [8.2570149, 49.362783], [8.2570107, 49.3626818], [8.2570095, 49.3626322], [8.2574175, 49.3626311]]]}}, {"type": "Feature", "properties": {"name": "Hotel Alcatraz", "addr:city": "Kaiserslautern", "addr:street": "Morlauterer Stra\u00dfe", "addr:postcode": "67657", "kloepsce:postal_code": "67657", "cluster": "cluster_67_6", "kloepsce:id": "67#06", "kloepsce:name": "67#06 Hotel Alcatraz"}, "geometry": {"type": "Polygon", "coordinates": [[[7.7667487, 49.4482103], [7.7667157, 49.4482072], [7.766742, 49.4480883], [7.7667798, 49.4480918], [7.7668154, 49.447931], [7.7669888, 49.4479473], [7.7669532, 49.4481093], [7.7673409, 49.4481454], [7.7673116, 49.4482641], [7.7669253, 49.4482279], [7.7669069, 49.4483111], [7.76673, 49.4482945], [7.7667487, 49.4482103]]]}}, {"type": "Feature", "properties": {"name": "SAKS Urban Design Hotel", "addr:street": "Stiftsplatz", "addr:postcode": "67655", "stars": "4", "kloepsce:postal_code": "67655", "cluster": "cluster_67_7", "kloepsce:id": "67#07", "kloepsce:name": "67#07 SAKS Urban Design Hotel"}, "geometry": {"type": "Polygon", "coordinates": [[[7.7724133, 49.4451447], [7.7724052, 49.4451333], [7.7722966, 49.444973], [7.7726809, 49.444854], [7.7728677, 49.444795], [7.7729061, 49.444848], [7.7729637, 49.4448325], [7.773035, 49.4449373], [7.7730513, 49.4449614], [7.7727275, 49.4450544], [7.7724133, 49.4451447]]]}}, {"type": "Feature", "properties": {"name": "Stadthotel", "addr:city": "Kaiserslautern", "addr:street": "Friedrichstra\u00dfe", "addr:postcode": "67655", "kloepsce:postal_code": "67655", "cluster": "cluster_67_8", "kloepsce:id": "67#08", "kloepsce:name": "67#08 Stadthotel"}, "geometry": {"type": "Polygon", "coordinates": [[[7.7757003, 49.4429105], [7.7758567, 49.4429293], [7.7760968, 49.4429592], [7.7762004, 49.4429444], [7.7762301, 49.4430191], [7.776083, 49.4430441], [7.7758326, 49.443015], [7.7758258, 49.4430343], [7.7758048, 49.4430323], [7.7756672, 49.4430157], [7.7756705, 49.4430051], [7.7757003, 49.4429105]]]}}, {"type": "Feature", "properties": {"name": "City Hotel", "addr:city": "Kaiserslautern", "addr:street": "Rosenstra\u00dfe", "addr:postcode": "67655", "kloepsce:postal_code": "67655", "cluster": "cluster_67_9", "kloepsce:id": "67#09", "kloepsce:name": "67#09 City Hotel"}, "geometry": {"type": "Polygon", "coordinates": [[[7.7649015, 49.4424066], [7.7650709, 49.4423667], [7.7651196, 49.4424586], [7.7650607, 49.4424719], [7.7650696, 49.4424887], [7.7650119, 49.4425017], [7.7650039, 49.4424868], [7.7649508, 49.4424988], [7.7649015, 49.4424066]]]}}, {"type": "Feature", "properties": {"name": "Schweizer Stubb", "addr:city": "Kaiserslautern", "addr:street": "K\u00f6nigstra\u00dfe", "addr:postcode": "67655", "kloepsce:postal_code": "67655", "cluster": "cluster_67_10", "kloepsce:id": "67#10", "kloepsce:name": "67#10 Schweizer Stubb"}, "geometry": {"type": "Polygon", "coordinates": [[[7.7651989, 49.4435985], [7.76532, 49.443503], [7.7653915, 49.4435415], [7.7654121, 49.443528], [7.765463, 49.443541], [7.7654106, 49.4435821], [7.7653126, 49.4436583], [7.7651989, 49.4435985]]]}}, {"type": "Feature", "properties": {"name": "Zur Gro\u00dfen Erde", "addr:city": "Schifferstadt", "addr:street": "Gro\u00dfe Erde", "addr:postcode": "67105", "kloepsce:postal_code": "67105", "cluster": "cluster_67_11", "kloepsce:id": "67#11", "kloepsce:name": "67#11 Zur Gro\u00dfen Erde"}, "geometry": {"type": "Polygon", "coordinates": [[[8.3649216, 49.4096403], [8.3647095, 49.4096184], [8.3647406, 49.409491], [8.3649526, 49.4095129], [8.3649216, 49.4096403]]]}}, {"type": "Feature", "properties": {"name": "Astra", "addr:city": "Kaiserslautern", "addr:street": "Rudolf-Breitscheid-Stra\u00dfe", "addr:postcode": "67655", "kloepsce:postal_code": "67655", "cluster": "cluster_67_12", "kloepsce:id": "67#12", "kloepsce:name": "67#12 Astra"}, "geometry": {"type": "Polygon", "coordinates": [[[7.7663846, 49.4374285], [7.7665192, 49.4374685], [7.766414, 49.4375457], [7.7663058, 49.4374842], [7.7663846, 49.4374285]]]}}, {"type": "Feature", "properties": {"name": "Waldhotel", "addr:city": "Eisenberg (Pfalz)", "addr:street": "Martin-Luther-Stra\u00dfe", "addr:postcode": "67304", "kloepsce:postal_code": "67304", "cluster": "cluster_67_13", "kloepsce:id": "67#13", "kloepsce:name": "67#13 Waldhotel"}, "geometry": {"type": "Polygon", "coordinates": [[[8.0583424, 49.5573484], [8.0584322, 49.5570854], [8.0586523, 49.5571171], [8.0585965, 49.5572805], [8.0585625, 49.55738], [8.0584703, 49.5573667], [8.0583424, 49.5573484]]]}}, {"type": "Feature", "properties": {"name": "Best Western Leoso Hotel", "addr:city": "Ludwigshafen am Rhein", "addr:street": "Pasadenaallee", "addr:postcode": "67059", "kloepsce:postal_code": "67059", "cluster": "cluster_67_14", "kloepsce:id": "67#14", "kloepsce:name": "67#14 Best Western Leoso Hotel"}, "geometry": {"type": "Polygon", "coordinates": [[[8.4351339, 49.4791382], [8.4353185, 49.478624], [8.4352206, 49.4786096], [8.435223, 49.4786027], [8.4352848, 49.4784333], [8.4354786, 49.4784653], [8.4356416, 49.4784914], [8.4357581, 49.478401], [8.4357918, 49.478418], [8.4358616, 49.4784123], [8.4359516, 49.4783405], [8.4361576, 49.4784526], [8.4360146, 49.4785747], [8.4359667, 49.4785545], [8.4358855, 49.4786141], [8.4358361, 49.4786062], [8.4357648, 49.4788075], [8.4355812, 49.4787791], [8.4355374, 49.4789053], [8.4354871, 49.4788987], [8.4353999, 49.4791461], [8.435266, 49.4791261], [8.4352552, 49.4791563], [8.4351339, 49.4791382]]]}}, {"type": "Feature", "properties": {"name": "Hotel Heymann", "addr:city": "Kaiserslautern", "addr:street": "M\u00fchlstra\u00dfe", "addr:postcode": "67659", "stars": "3", "kloepsce:postal_code": "67659", "cluster": "cluster_67_15", "kloepsce:id": "67#15", "kloepsce:name": "67#15 Hotel Heymann"}, "geometry": {"type": "Polygon", "coordinates": [[[7.7656149, 49.4450759], [7.7655337, 49.4451163], [7.7654156, 49.4450122], [7.7653531, 49.4450406], [7.7652977, 49.4449881], [7.7652268, 49.4449201], [7.7653728, 49.4448601], [7.7656149, 49.4450759]]]}}, {"type": "Feature", "properties": {"name": "Hotel Seelord", "addr:city": "Kaiserslautern", "addr:street": "Pfaffplatz", "addr:postcode": "67655", "kloepsce:postal_code": "67655", "cluster": "cluster_67_16", "kloepsce:id": "67#16", "kloepsce:name": "67#16 Hotel Seelord"}, "geometry": {"type": "Polygon", "coordinates": [[[7.7586107, 49.4433808], [7.7587685, 49.4433974], [7.7587486, 49.4434772], [7.7586176, 49.4434632], [7.7585137, 49.4434521], [7.7585161, 49.4434428], [7.7585288, 49.4433923], [7.7586055, 49.4434004], [7.7586107, 49.4433808]]]}}, {"type": "Feature", "properties": {"name": "Fronm\u00fchle", "addr:city": "Bad D\u00fcrkheim", "addr:street": "Salinenstra\u00dfe", "addr:postcode": "67098", "kloepsce:postal_code": "67098", "cluster": "cluster_67_17", "kloepsce:id": "67#17", "kloepsce:name": "67#17 Fronm\u00fchle"}, "geometry": {"type": "Polygon", "coordinates": [[[8.1747419, 49.4639426], [8.1746724, 49.4641272], [8.1744517, 49.4640921], [8.1744452, 49.4641092], [8.1743847, 49.4640995], [8.1743776, 49.4641184], [8.1741677, 49.464085], [8.1741997, 49.4639998], [8.1741013, 49.4639841], [8.1741122, 49.4639551], [8.1740873, 49.4639511], [8.1741361, 49.4638214], [8.1744668, 49.4638739], [8.1744579, 49.4638974], [8.1747419, 49.4639426]]]}}, {"type": "Feature", "properties": {"name": "Blechhammer", "addr:city": "Kaiserslautern", "addr:street": "Am Hammerweiher", "addr:postcode": "67659", "kloepsce:postal_code": "67659", "cluster": "cluster_67_18", "kloepsce:id": "67#18", "kloepsce:name": "67#18 Blechhammer"}, "geometry": {"type": "Polygon", "coordinates": [[[7.740472, 49.4519714], [7.7403781, 49.4520588], [7.7403398, 49.4520414], [7.7402749, 49.4521018], [7.7403143, 49.4521197], [7.7402412, 49.4521878], [7.7401823, 49.452161], [7.7401942, 49.4522011], [7.7401128, 49.4522769], [7.7399523, 49.4522041], [7.73999, 49.452169], [7.7399452, 49.4521487], [7.7402459, 49.4518687], [7.740472, 49.4519714]]]}}, {"type": "Feature", "properties": {"name": "Hotel und Landgasthof Schwan", "addr:city": "Trippstadt", "addr:street": "Kaiserslauterer Stra\u00dfe", "addr:postcode": "67705", "kloepsce:postal_code": "67705", "cluster": "cluster_67_19", "kloepsce:id": "67#19", "kloepsce:name": "67#19 Hotel und Landgasthof Schwan"}, "geometry": {"type": "Polygon", "coordinates": [[[7.7706448, 49.3569048], [7.7709934, 49.3565774], [7.7712088, 49.3566746], [7.7711246, 49.3567538], [7.771055, 49.3567223], [7.7707906, 49.3569706], [7.7706448, 49.3569048]]]}}, {"type": "Feature", "properties": {"name": "Pf\u00e4lzer Hof", "addr:city": "R\u00f6merberg", "addr:street": "Schwegenheimer Stra\u00dfe", "addr:postcode": "67354", "stars": "3", "kloepsce:postal_code": "67354", "cluster": "cluster_67_20", "kloepsce:id": "67#20", "kloepsce:name": "67#20 Pf\u00e4lzer Hof"}, "geometry": {"type": "Polygon", "coordinates": [[[8.3970135, 49.2650185], [8.3973296, 49.2650492], [8.3972597, 49.2653558], [8.3973052, 49.2653602], [8.3972752, 49.2654915], [8.3968736, 49.2654523], [8.3969, 49.2653114], [8.3969453, 49.2653172], [8.3970135, 49.2650185]]]}}, {"type": "Feature", "properties": {"name": "Pension Bobot", "addr:city": "Kaiserslautern", "addr:street": "Nordbahnstra\u00dfe", "addr:postcode": "67657", "kloepsce:postal_code": "67657", "cluster": "cluster_67_21", "kloepsce:id": "67#21", "kloepsce:name": "67#21 Pension Bobot"}, "geometry": {"type": "Polygon", "coordinates": [[[7.7897016, 49.4458174], [7.7896823, 49.4457191], [7.7898757, 49.445703], [7.789895, 49.4458013], [7.7897016, 49.4458174]]]}}, {"type": "Feature", "properties": {"name": "Morgenstern", "addr:city": "R\u00f6merberg", "addr:street": "Germersheimer Stra\u00dfe", "addr:postcode": "67354", "stars": "3", "kloepsce:postal_code": "67354", "cluster": "cluster_67_22", "kloepsce:id": "67#22", "kloepsce:name": "67#22 Morgenstern"}, "geometry": {"type": "Polygon", "coordinates": [[[8.4106971, 49.2997755], [8.4108946, 49.2997096], [8.4110614, 49.2999224], [8.4108639, 49.2999882], [8.4106971, 49.2997755]]]}}, {"type": "Feature", "properties": {"name": "Zum Narrenberg", "addr:city": "R\u00f6merberg", "addr:street": "Marxenweidenweg", "addr:postcode": "67354", "kloepsce:postal_code": "67354", "cluster": "cluster_67_23", "kloepsce:id": "67#23", "kloepsce:name": "67#23 Zum Narrenberg"}, "geometry": {"type": "Polygon", "coordinates": [[[8.4065224, 49.2896818], [8.4064797, 49.2896025], [8.4066342, 49.289567], [8.4066769, 49.2896463], [8.4065224, 49.2896818]]]}}, {"type": "Feature", "properties": {"name": "Zum Engel", "addr:city": "R\u00f6merberg", "addr:street": "Bergh\u00e4user Stra\u00dfe", "addr:postcode": "67354", "kloepsce:postal_code": "67354", "cluster": "cluster_67_24", "kloepsce:id": "67#24", "kloepsce:name": "67#24 Zum Engel"}, "geometry": {"type": "Polygon", "coordinates": [[[8.4096133, 49.2950956], [8.4099746, 49.2950956], [8.4099746, 49.2951939], [8.4096133, 49.2951939], [8.4096133, 49.2950956]]]}}, {"type": "Feature", "properties": {"name": "Kurparkhotel", "addr:city": "Bad D\u00fcrkheim", "addr:street": "Schlossplatz", "addr:postcode": "67098", "stars": "4S", "kloepsce:postal_code": "67098", "cluster": "cluster_67_25", "kloepsce:id": "67#25", "kloepsce:name": "67#25 Kurparkhotel"}, "geometry": {"type": "Polygon", "coordinates": [[[8.1685421, 49.463283], [8.1682904, 49.4631722], [8.1683287, 49.4631258], [8.1683656, 49.4630858], [8.1684088, 49.4630406], [8.1685721, 49.4631139], [8.1688409, 49.4632325], [8.1687554, 49.463311], [8.1687174, 49.4633485], [8.1686105, 49.4634595], [8.1684376, 49.4633917], [8.1685421, 49.463283]]]}}, {"type": "Feature", "properties": {"name": "Hotel Goldb\u00e4chel", "addr:city": "Wachenheim an der Weinstra\u00dfe", "addr:street": "Waldstra\u00dfe", "addr:postcode": "67157", "kloepsce:postal_code": "67157", "cluster": "cluster_67_26", "kloepsce:id": "67#26", "kloepsce:name": "67#26 Hotel Goldb\u00e4chel"}, "geometry": {"type": "Polygon", "coordinates": [[[8.1677304, 49.4356005], [8.1676004, 49.4357069], [8.1673969, 49.4356017], [8.167441, 49.4355656], [8.1673576, 49.4355225], [8.1674296, 49.4354637], [8.1675114, 49.435506], [8.1675254, 49.4354945], [8.1677304, 49.4356005]]]}}, {"type": "Feature", "properties": {"name": "Hotel Barth", "addr:city": "Kaiserslautern", "addr:street": "M\u00fchlstra\u00dfe", "addr:postcode": "67659", "stars": "3", "kloepsce:postal_code": "67659", "cluster": "cluster_67_27", "kloepsce:id": "67#27", "kloepsce:name": "67#27 Hotel Barth"}, "geometry": {"type": "Polygon", "coordinates": [[[7.7631206, 49.4456186], [7.7630059, 49.4456609], [7.7629354, 49.4455798], [7.7629647, 49.445568], [7.7629306, 49.445529], [7.7630252, 49.4454953], [7.7631206, 49.4456186]]]}}, {"type": "Feature", "properties": {"name": "Frankenthaler Hof", "addr:city": "Frankenthal (Pfalz)", "addr:street": "Wormser Stra\u00dfe", "addr:postcode": "67227", "kloepsce:postal_code": "67227", "cluster": "cluster_67_28", "kloepsce:id": "67#28", "kloepsce:name": "67#28 Frankenthaler Hof"}, "geometry": {"type": "Polygon", "coordinates": [[[8.3535867, 49.5488519], [8.3537537, 49.5488545], [8.3536452, 49.5490156], [8.3536395, 49.5490218], [8.3536314, 49.5490267], [8.3536167, 49.5490292], [8.3536073, 49.5490294], [8.353597, 49.5490269], [8.3535892, 49.5490227], [8.3535817, 49.5490146], [8.3535813, 49.5490069], [8.3535855, 49.5488862], [8.3535867, 49.5488519]]]}}, {"type": "Feature", "properties": {"name": "Relax Hotel", "addr:city": "Ludwigshafen am Rhein", "addr:street": "Wattstra\u00dfe", "addr:postcode": "67065", "kloepsce:postal_code": "67065", "cluster": "cluster_67_29", "kloepsce:id": "67#29", "kloepsce:name": "67#29 Relax Hotel"}, "geometry": {"type": "Polygon", "coordinates": [[[8.4207705, 49.4614978], [8.420999, 49.4617756], [8.4208616, 49.4618233], [8.4206331, 49.4615456], [8.4207705, 49.4614978]]]}}, {"type": "Feature", "properties": {"name": "Seehotel Gelterswoog", "addr:city": "Kaiserslautern", "addr:street": "Gelterswoog", "addr:postcode": "67661", "kloepsce:postal_code": "67661", "cluster": "cluster_67_30", "kloepsce:id": "67#30", "kloepsce:name": "67#30 Seehotel Gelterswoog"}, "geometry": {"type": "Polygon", "coordinates": [[[7.6935362, 49.391686], [7.6940396, 49.3917377], [7.6940281, 49.3917849], [7.6940981, 49.3917849], [7.694149, 49.3917849], [7.6941491, 49.3918423], [7.6940933, 49.3918424], [7.6940142, 49.3918424], [7.6939898, 49.3919427], [7.6937002, 49.3919129], [7.6936772, 49.3920077], [7.6934841, 49.3919879], [7.6935047, 49.3919028], [7.6932426, 49.3918917], [7.6932642, 49.3916745], [7.6935362, 49.391686]]]}}, {"type": "Feature", "properties": {"name": "Residenz am See", "addr:city": "Kaiserslautern", "addr:street": "Gelterswoog", "addr:postcode": "67661", "kloepsce:postal_code": "67661", "cluster": "cluster_67_31", "kloepsce:id": "67#31", "kloepsce:name": "67#31 Residenz am See"}, "geometry": {"type": "Polygon", "coordinates": [[[7.6931297, 49.3918609], [7.693026, 49.3918583], [7.693037, 49.3916731], [7.692993, 49.391672], [7.6929995, 49.3915629], [7.6931472, 49.3915666], [7.6931297, 49.3918609]]]}}, {"type": "Feature", "properties": {"name": "Hotel Schulte", "addr:city": "Kaiserslautern", "addr:street": "Malzstra\u00dfe", "addr:postcode": "67663", "kloepsce:postal_code": "67663", "cluster": "cluster_67_32", "kloepsce:id": "67#32", "kloepsce:name": "67#32 Hotel Schulte"}, "geometry": {"type": "Polygon", "coordinates": [[[7.7741887, 49.4359726], [7.7743348, 49.4360403], [7.774276, 49.436094], [7.7743341, 49.4361209], [7.7742869, 49.436164], [7.7742288, 49.436137], [7.774166, 49.4361942], [7.7740084, 49.436137], [7.7741887, 49.4359726]]]}}, {"type": "Feature", "properties": {"name": "B&B Hotel", "addr:city": "Kaiserslautern", "addr:street": "Barbarossastra\u00dfe", "addr:postcode": "67655", "kloepsce:postal_code": "67655", "cluster": "cluster_67_33", "kloepsce:id": "67#33", "kloepsce:name": "67#33 B&B Hotel"}, "geometry": {"type": "Polygon", "coordinates": [[[7.772503, 49.4376396], [7.7725644, 49.4375316], [7.7726002, 49.4375401], [7.7731329, 49.4376678], [7.7730715, 49.4377759], [7.7725745, 49.4376568], [7.772503, 49.4376396]]]}}, {"type": "Feature", "properties": {"name": "Johanniskreuz", "addr:city": "Trippstadt", "addr:postcode": "67705", "stars": "3", "kloepsce:postal_code": "67705", "cluster": "cluster_67_34", "kloepsce:id": "67#34", "kloepsce:name": "67#34 Johanniskreuz"}, "geometry": {"type": "Polygon", "coordinates": [[[7.824785, 49.3359787], [7.8248882, 49.335831], [7.8250737, 49.335886], [7.8251002, 49.335848], [7.825172, 49.3356935], [7.8253265, 49.3357209], [7.8252443, 49.3358875], [7.8252001, 49.3359508], [7.8253636, 49.3359993], [7.8253209, 49.336061], [7.8252762, 49.3361244], [7.824785, 49.3359787]]]}}, {"type": "Feature", "properties": {"name": "ibis Styles Speyer", "addr:city": "Speyer", "addr:street": "Karl-Leiling-Allee", "addr:postcode": "67346", "stars": "3", "kloepsce:postal_code": "67346", "cluster": "cluster_67_35", "kloepsce:id": "67#35", "kloepsce:name": "67#35 ibis Styles Speyer"}, "geometry": {"type": "Polygon", "coordinates": [[[8.4421432, 49.3127154], [8.4422851, 49.3127341], [8.4423724, 49.3128145], [8.442342, 49.3129089], [8.4422173, 49.3129611], [8.4420841, 49.3129435], [8.4420013, 49.3128591], [8.4420249, 49.3128133], [8.4420678, 49.3128129], [8.4420627, 49.3128024], [8.4420612, 49.3127994], [8.4420559, 49.3127882], [8.4420495, 49.3127755], [8.4419562, 49.312762], [8.4421021, 49.312333], [8.442201, 49.3123473], [8.4421917, 49.3123747], [8.4422559, 49.312384], [8.4421432, 49.3127154]]]}}, {"type": "Feature", "properties": {"name": "Hotel Residenz am K\u00f6nigsplatz", "addr:city": "Speyer", "addr:street": "Ludwigstra\u00dfe", "addr:postcode": "67346", "stars": "4", "kloepsce:postal_code": "67346", "cluster": "cluster_67_36", "kloepsce:id": "67#36", "kloepsce:name": "67#36 Hotel Residenz am K\u00f6nigsplatz"}, "geometry": {"type": "Polygon", "coordinates": [[[8.4350632, 49.3159231], [8.4351182, 49.3158584], [8.4351744, 49.3157934], [8.4355213, 49.3159197], [8.435458, 49.3159936], [8.4354439, 49.31601], [8.4352815, 49.3159509], [8.4352477, 49.3159902], [8.4350632, 49.3159231]]]}}, {"type": "Feature", "properties": {"name": "Hotel Sperling", "addr:city": "Speyer", "addr:street": "Im Neudeck", "addr:postcode": "67346", "kloepsce:postal_code": "67346", "cluster": "cluster_67_37", "kloepsce:id": "67#37", "kloepsce:name": "67#37 Hotel Sperling"}, "geometry": {"type": "Polygon", "coordinates": [[[8.431193, 49.3399329], [8.4311899, 49.339899], [8.4311852, 49.339848], [8.4317022, 49.3398225], [8.4316695, 49.339906], [8.4316396, 49.3399065], [8.4316389, 49.339919], [8.431631, 49.3399302], [8.4316182, 49.3399376], [8.4316054, 49.3399394], [8.4315897, 49.3399394], [8.4315748, 49.3399339], [8.4315605, 49.3399278], [8.4315584, 49.3399218], [8.431552, 49.339913], [8.431193, 49.3399329]]]}}, {"type": "Feature", "properties": {"name": "Hotel Landgasthof Burgsch\u00e4nke", "addr:city": "Hohenecken", "addr:street": "Schlossstra\u00dfe", "addr:postcode": "67661", "kloepsce:postal_code": "67661", "cluster": "cluster_67_38", "kloepsce:id": "67#38", "kloepsce:name": "67#38 Hotel Landgasthof Burgsch\u00e4nke"}, "geometry": {"type": "Polygon", "coordinates": [[[7.698722, 49.4125431], [7.6986563, 49.4124133], [7.6989726, 49.4123559], [7.6990097, 49.4124425], [7.6989377, 49.4124555], [7.698987, 49.4125725], [7.699063, 49.4125701], [7.6990708, 49.4126745], [7.6986891, 49.4126866], [7.6986834, 49.4126101], [7.6988366, 49.4126053], [7.6988048, 49.4125298], [7.698722, 49.4125431]]]}}, {"type": "Feature", "properties": {"name": "Hotel Gasthof Am Rathaus", "addr:city": "Kaiserslautern", "addr:street": "Burgherrenstra\u00dfe", "addr:postcode": "67661", "kloepsce:postal_code": "67661", "cluster": "cluster_67_39", "kloepsce:id": "67#39", "kloepsce:name": "67#39 Hotel Gasthof Am Rathaus"}, "geometry": {"type": "Polygon", "coordinates": [[[7.6981122, 49.4116431], [7.6981701, 49.4116071], [7.6982027, 49.4116293], [7.6982356, 49.4116089], [7.6983973, 49.411719], [7.6982671, 49.4118], [7.698179, 49.4118547], [7.6980694, 49.41178], [7.6980533, 49.41179], [7.697959, 49.4117258], [7.6981026, 49.4116365], [7.6981122, 49.4116431]]]}}, {"type": "Feature", "properties": {"name": "Barbarossahof", "addr:city": "Kaiserslautern", "addr:street": "Eselsf\u00fcrth", "addr:postcode": "67657", "kloepsce:postal_code": "67657", "cluster": "cluster_67_40", "kloepsce:id": "67#40", "kloepsce:name": "67#40 Barbarossahof"}, "geometry": {"type": "Polygon", "coordinates": [[[7.821857, 49.4597612], [7.8218711, 49.4596483], [7.8220496, 49.4596577], [7.8220549, 49.4596147], [7.8219747, 49.4596105], [7.8220038, 49.4593766], [7.8221472, 49.4593841], [7.8221418, 49.4594271], [7.8222385, 49.4594322], [7.8222147, 49.4596238], [7.8222788, 49.4596272], [7.8222529, 49.4598357], [7.8220764, 49.4598264], [7.822083, 49.4597731], [7.821857, 49.4597612]]]}}, {"type": "Feature", "properties": {"name": "Hotel Faber", "addr:city": "Worms", "addr:street": "Martinspforte", "addr:postcode": "67547", "kloepsce:postal_code": "67547", "cluster": "cluster_67_41", "kloepsce:id": "67#41", "kloepsce:name": "67#41 Hotel Faber"}, "geometry": {"type": "Polygon", "coordinates": [[[8.364463, 49.6343238], [8.3645218, 49.6341577], [8.3645403, 49.6341591], [8.3646818, 49.6341851], [8.3646241, 49.6343377], [8.364463, 49.6343238]]]}}, {"type": "Feature", "properties": {"name": "M\u00fchle am Schlo\u00dfberg", "addr:city": "Wartenberg-Rohrbach", "addr:street": "Schlo\u00dfberg", "addr:postcode": "67681", "kloepsce:postal_code": "67681", "cluster": "cluster_67_42", "kloepsce:id": "67#42", "kloepsce:name": "67#42 M\u00fchle am Schlo\u00dfberg"}, "geometry": {"type": "Polygon", "coordinates": [[[7.8512358, 49.5309303], [7.8512659, 49.5308631], [7.851622, 49.5309302], [7.8517123, 49.5307284], [7.8513656, 49.5306631], [7.8513959, 49.5305954], [7.8518522, 49.5306813], [7.8517383, 49.530936], [7.8517773, 49.5309434], [7.8517406, 49.5310254], [7.8512358, 49.5309303]]]}}, {"type": "Feature", "properties": {"name": "Hotel 10", "addr:city": "Eisenberg (Pfalz)", "addr:street": "Bahnhofstra\u00dfe", "addr:postcode": "67304", "kloepsce:postal_code": "67304", "cluster": "cluster_67_43", "kloepsce:id": "67#43", "kloepsce:name": "67#43 Hotel 10"}, "geometry": {"type": "Polygon", "coordinates": [[[8.0715195, 49.5560263], [8.0712851, 49.5559942], [8.0713415, 49.5558208], [8.0715759, 49.5558528], [8.0715195, 49.5560263]]]}}, {"type": "Feature", "properties": {"name": "Zur sch\u00f6nen Aussicht", "addr:city": "Eisenberg (Pfalz)", "addr:street": "Ebersteinstra\u00dfe", "addr:postcode": "67304", "kloepsce:postal_code": "67304", "cluster": "cluster_67_44", "kloepsce:id": "67#44", "kloepsce:name": "67#44 Zur sch\u00f6nen Aussicht"}, "geometry": {"type": "Polygon", "coordinates": [[[8.0284426, 49.5523309], [8.0283074, 49.552292], [8.0283947, 49.5521822], [8.0285222, 49.5522249], [8.0286816, 49.5522907], [8.0288161, 49.5523583], [8.028697, 49.552458], [8.0288481, 49.552534], [8.0287543, 49.5526125], [8.0284686, 49.5524688], [8.0285673, 49.5523863], [8.0284426, 49.5523309]]]}}, {"type": "Feature", "properties": {"name": "Rosenthaler Hof", "addr:city": "Kerzenheim", "addr:street": "Rosenthalerhof", "addr:postcode": "67304", "kloepsce:postal_code": "67304", "cluster": "cluster_67_45", "kloepsce:id": "67#45", "kloepsce:name": "67#45 Rosenthaler Hof"}, "geometry": {"type": "Polygon", "coordinates": [[[8.0120548, 49.5607266], [8.0120844, 49.5607265], [8.0120852, 49.5608036], [8.0120856, 49.5608427], [8.0121694, 49.5608424], [8.0121699, 49.5608893], [8.0120209, 49.5608899], [8.0120201, 49.5608038], [8.0117751, 49.5608049], [8.0117744, 49.5607279], [8.0118805, 49.5607274], [8.01188, 49.5606812], [8.0120256, 49.5606806], [8.0120543, 49.5606804], [8.0120548, 49.5607266]]]}}, {"type": "Feature", "properties": {"name": "Waldhaus Wilhelm Hotel-Restaurant", "addr:city": "Maikammer", "addr:street": "Kalmith\u00f6henstra\u00dfe", "addr:postcode": "67487", "kloepsce:postal_code": "67487", "cluster": "cluster_67_46", "kloepsce:id": "67#46", "kloepsce:name": "67#46 Waldhaus Wilhelm Hotel-Restaurant"}, "geometry": {"type": "Polygon", "coordinates": [[[8.101752, 49.3116908], [8.101754, 49.3116119], [8.1020543, 49.3115806], [8.1021335, 49.3115331], [8.102073, 49.3114746], [8.1021898, 49.3114202], [8.1022795, 49.311495], [8.102415, 49.311442], [8.1025026, 49.3115358], [8.1021669, 49.3116894], [8.101752, 49.3116908]]]}}, {"type": "Feature", "properties": {"name": "ACHAT Hotel", "addr:city": "Frankenthal (Pfalz)", "addr:street": "Mahlastra\u00dfe", "addr:postcode": "67227", "kloepsce:postal_code": "67227", "cluster": "cluster_67_47", "kloepsce:id": "67#47", "kloepsce:name": "67#47 ACHAT Hotel"}, "geometry": {"type": "Polygon", "coordinates": [[[8.3540394, 49.5279026], [8.3538405, 49.5278998], [8.3538428, 49.5278428], [8.3534147, 49.5278383], [8.3534162, 49.5278071], [8.3533838, 49.5278072], [8.3533837, 49.5277642], [8.3534162, 49.5277642], [8.3534192, 49.5277073], [8.3540436, 49.5277145], [8.354042, 49.5277888], [8.3540677, 49.5277891], [8.3540674, 49.5278003], [8.3540814, 49.5278005], [8.3540807, 49.5278316], [8.354041, 49.5278313], [8.3540394, 49.5279026]]]}}, {"type": "Feature", "properties": {"name": "Hotel Excelsior", "addr:city": "Ludwigshafen am Rhein", "addr:street": "Lorientallee", "addr:postcode": "67059", "kloepsce:postal_code": "67059", "cluster": "cluster_67_48", "kloepsce:id": "67#48", "kloepsce:name": "67#48 Hotel Excelsior"}, "geometry": {"type": "Polygon", "coordinates": [[[8.4371689, 49.4783287], [8.43744, 49.4784705], [8.4372797, 49.4785998], [8.4370087, 49.478458], [8.4371689, 49.4783287]]]}}, {"type": "Feature", "properties": {"name": "Hotel Pf\u00e4lzer Hof", "addr:city": "Lauterecken", "addr:street": "Hauptstra\u00dfe", "addr:postcode": "67742", "stars": "3", "kloepsce:postal_code": "67742", "cluster": "cluster_67_49", "kloepsce:id": "67#49", "kloepsce:name": "67#49 Hotel Pf\u00e4lzer Hof"}, "geometry": {"type": "Polygon", "coordinates": [[[7.5900469, 49.6511102], [7.5901446, 49.6511965], [7.5900608, 49.6512362], [7.590051, 49.6512275], [7.5900099, 49.651247], [7.5900341, 49.6512685], [7.5898752, 49.6513438], [7.589831, 49.6513047], [7.5897631, 49.6512448], [7.5898037, 49.6512255], [7.5899152, 49.6511727], [7.5900469, 49.6511102]]]}}, {"type": "Feature", "properties": {"name": "Hotel Kurpfalz", "addr:city": "Speyer", "addr:street": "M\u00fchlturmstra\u00dfe", "addr:postcode": "67346", "kloepsce:postal_code": "67346", "cluster": "cluster_67_50", "kloepsce:id": "67#50", "kloepsce:name": "67#50 Hotel Kurpfalz"}, "geometry": {"type": "Polygon", "coordinates": [[[8.4288559, 49.3179237], [8.4287337, 49.3179221], [8.4287361, 49.3178489], [8.4286802, 49.3178482], [8.4286833, 49.3177501], [8.4289199, 49.3177533], [8.4289167, 49.3178521], [8.4288934, 49.3178518], [8.428892, 49.3178969], [8.4289349, 49.3178975], [8.4289453, 49.3178794], [8.429015, 49.317895], [8.428935, 49.318047], [8.4288546, 49.3180297], [8.4288559, 49.3179237]]]}}, {"type": "Feature", "properties": {"name": "GUT LEBEN am Morstein", "addr:city": "Westhofen", "addr:street": "Mainzer Stra\u00dfe", "addr:postcode": "67593", "kloepsce:postal_code": "67593", "cluster": "cluster_67_51", "kloepsce:id": "67#51", "kloepsce:name": "67#51 GUT LEBEN am Morstein"}, "geometry": {"type": "Polygon", "coordinates": [[[8.2464555, 49.7052746], [8.2464946, 49.7052072], [8.2465199, 49.7052133], [8.2465262, 49.7052024], [8.2466065, 49.7052219], [8.2466107, 49.7052147], [8.2466932, 49.7052348], [8.2466884, 49.705243], [8.2467483, 49.7052576], [8.2466856, 49.7053657], [8.2465883, 49.7053421], [8.2465925, 49.7053348], [8.2465553, 49.7053257], [8.2465666, 49.7053063], [8.2465479, 49.7053018], [8.2465567, 49.7052866], [8.2464862, 49.7052695], [8.2464798, 49.7052805], [8.2464555, 49.7052746]]]}}, {"type": "Feature", "properties": {"name": "Pfeddersheimer Hof", "addr:city": "Worms", "addr:street": "Zellertalstra\u00dfe", "addr:postcode": "67551", "kloepsce:postal_code": "67551", "cluster": "cluster_67_52", "kloepsce:id": "67#52", "kloepsce:name": "67#52 Pfeddersheimer Hof"}, "geometry": {"type": "Polygon", "coordinates": [[[8.2742323, 49.6341035], [8.2737662, 49.6340527], [8.2737996, 49.6339239], [8.2742658, 49.6339746], [8.2742323, 49.6341035]]]}}, {"type": "Feature", "properties": {"name": "Ren\u00e9 Bohn", "addr:city": "Ludwigshafen am Rhein", "addr:street": "Ren\u00e9-Bohn-Stra\u00dfe", "addr:postcode": "67063", "stars": "4", "kloepsce:postal_code": "67063", "cluster": "cluster_67_53", "kloepsce:id": "67#53", "kloepsce:name": "67#53 Ren\u00e9 Bohn"}, "geometry": {"type": "Polygon", "coordinates": [[[8.4259425, 49.4917144], [8.4258967, 49.4917071], [8.4258929, 49.4917191], [8.4258722, 49.4917445], [8.4258413, 49.4917651], [8.4258027, 49.4917792], [8.4257595, 49.4917856], [8.4257154, 49.4917839], [8.4256737, 49.4917742], [8.4256379, 49.4917573], [8.4256958, 49.4917176], [8.4256728, 49.4917033], [8.4256296, 49.4917365], [8.4255508, 49.4916932], [8.4256203, 49.4916397], [8.4256798, 49.4916723], [8.4256946, 49.4916623], [8.4256236, 49.4916228], [8.4256518, 49.4916048], [8.4256904, 49.4915908], [8.4257336, 49.4915843], [8.4257778, 49.491586], [8.4258194, 49.4915957], [8.4258552, 49.4916127], [8.4258821, 49.4916355], [8.4258926, 49.491653], [8.4259686, 49.4916963], [8.4260689, 49.4916264], [8.4257076, 49.4914028], [8.4258525, 49.4912913], [8.4259543, 49.4913549], [8.4260358, 49.4914058], [8.4262217, 49.4915218], [8.4261759, 49.4915553], [8.4262605, 49.4916081], [8.4263279, 49.4916502], [8.426239, 49.4917152], [8.4262757, 49.4917381], [8.4258954, 49.492016], [8.4257568, 49.4919293], [8.4260059, 49.4917559], [8.4259411, 49.4917154], [8.4259425, 49.4917144]]]}}, {"type": "Feature", "properties": {"name": "St. Martiner Castell", "addr:city": "Sankt Martin", "addr:street": "Maikammerer Stra\u00dfe", "addr:postcode": "67487", "stars": "3S", "kloepsce:postal_code": "67487", "cluster": "cluster_67_54", "kloepsce:id": "67#54", "kloepsce:name": "67#54 St. Martiner Castell"}, "geometry": {"type": "Polygon", "coordinates": [[[8.1034467, 49.2996395], [8.103478, 49.299461], [8.1037778, 49.2993988], [8.1037973, 49.299461], [8.1037951, 49.2995031], [8.1037934, 49.2995346], [8.1037615, 49.2996407], [8.1034467, 49.2996395]]]}}, {"type": "Feature", "properties": {"name": "Hotel Deutschhof", "addr:street": "Edigheimer Stra\u00dfe", "kloepsce:postal_code": "67069", "cluster": "cluster_67_55", "kloepsce:id": "67#55", "kloepsce:name": "67#55 Hotel Deutschhof"}, "geometry": {"type": "Polygon", "coordinates": [[[8.4057333, 49.5197655], [8.4058726, 49.5197974], [8.4057826, 49.5199629], [8.4056432, 49.5199309], [8.4056808, 49.5198619], [8.4057333, 49.5197655]]]}}, {"type": "Feature", "properties": {"name": "Hotel und Restaurant Knobelbecher", "addr:city": "Ludwigshafen am Rhein", "addr:street": "B\u00fcrgermeister-Trupp-Stra\u00dfe", "addr:postcode": "67069", "kloepsce:postal_code": "67069", "cluster": "cluster_67_56", "kloepsce:id": "67#56", "kloepsce:name": "67#56 Hotel und Restaurant Knobelbecher"}, "geometry": {"type": "Polygon", "coordinates": [[[8.4091751, 49.5201538], [8.4091398, 49.5202268], [8.4090132, 49.520201], [8.4090485, 49.520128], [8.4091751, 49.5201538]]]}}, {"type": "Feature", "properties": {"name": "Hotel La Grotta", "addr:city": "Speyer", "addr:street": "Gutenbergstra\u00dfe", "addr:postcode": "67346", "kloepsce:postal_code": "67346", "cluster": "cluster_67_57", "kloepsce:id": "67#57", "kloepsce:name": "67#57 Hotel La Grotta"}, "geometry": {"type": "Polygon", "coordinates": [[[8.432306, 49.3189843], [8.4323645, 49.3191839], [8.4320194, 49.3192497], [8.4319921, 49.3191763], [8.4322399, 49.3191341], [8.4321996, 49.3189945], [8.432306, 49.3189843]]]}}, {"type": "Feature", "properties": {"name": "Residenz Mandelgarten", "addr:street": "An der Marlach", "kloepsce:postal_code": "67146", "cluster": "cluster_67_58", "kloepsce:id": "67#58", "kloepsce:name": "67#58 Residenz Mandelgarten"}, "geometry": {"type": "Polygon", "coordinates": [[[8.1893455, 49.4055323], [8.1893453, 49.4055014], [8.1892662, 49.4055016], [8.1892638, 49.4051965], [8.1894034, 49.4051961], [8.1894037, 49.4052399], [8.1895221, 49.4052395], [8.1895238, 49.4054705], [8.1894809, 49.4054774], [8.1894814, 49.4055319], [8.1893455, 49.4055323]]]}}, {"type": "Feature", "properties": {"name": "Kurpark Residenz", "addr:street": "An der Marlach", "kloepsce:postal_code": "67146", "cluster": "cluster_67_59", "kloepsce:id": "67#59", "kloepsce:name": "67#59 Kurpark Residenz"}, "geometry": {"type": "Polygon", "coordinates": [[[8.1892935, 49.4050636], [8.1892951, 49.4049753], [8.1892236, 49.4049748], [8.189225, 49.4048951], [8.1894583, 49.4048969], [8.1894588, 49.4048662], [8.1896113, 49.4048673], [8.1896094, 49.4049717], [8.1896466, 49.404972], [8.1896447, 49.4050776], [8.1894698, 49.4050763], [8.1894706, 49.4050322], [8.189438, 49.4050319], [8.1894374, 49.4050647], [8.1892935, 49.4050636]]]}}, {"type": "Feature", "properties": {"name": "Landhotel Berg", "addr:city": "Dannenfels", "addr:street": "Oberstra\u00dfe", "addr:postcode": "67814", "kloepsce:postal_code": "67814", "cluster": "cluster_67_60", "kloepsce:id": "67#60", "kloepsce:name": "67#60 Landhotel Berg"}, "geometry": {"type": "Polygon", "coordinates": [[[7.9431623, 49.6261466], [7.9431286, 49.626105], [7.9430078, 49.6261386], [7.9429232, 49.6260304], [7.9432181, 49.62593], [7.9433108, 49.6260398], [7.9432593, 49.6260595], [7.943289, 49.6261163], [7.9431623, 49.6261466]]]}}, {"type": "Feature", "properties": {"name": "Parkhotel Schillerhain", "addr:city": "Kirchheimbolanden", "addr:street": "Schillerhain", "addr:postcode": "67292", "stars": "4", "kloepsce:postal_code": "67292", "cluster": "cluster_67_61", "kloepsce:id": "67#61", "kloepsce:name": "67#61 Parkhotel Schillerhain"}, "geometry": {"type": "Polygon", "coordinates": [[[8.0022846, 49.6611114], [8.0022, 49.6611015], [8.0018513, 49.6610613], [8.0018784, 49.6609626], [8.001964, 49.6609725], [8.0019693, 49.6609532], [8.0020111, 49.660958], [8.0020268, 49.6609598], [8.0020626, 49.6609639], [8.0020851, 49.6609665], [8.0020811, 49.6609808], [8.0023149, 49.6610059], [8.0022846, 49.6611114]]]}}, {"type": "Feature", "properties": {"name": "Hotel+Restaurant J\u00e4gerhof Mutterstadt", "addr:city": "Mutterstadt", "addr:street": "An der Fohlenweide", "addr:postcode": "67112", "kloepsce:postal_code": "67112", "cluster": "cluster_67_62", "kloepsce:id": "67#62", "kloepsce:name": "67#62 Hotel+Restaurant J\u00e4gerhof Mutterstadt"}, "geometry": {"type": "Polygon", "coordinates": [[[8.3664931, 49.4220009], [8.3666365, 49.4219042], [8.3666161, 49.4218914], [8.3667012, 49.4218341], [8.366768, 49.421876], [8.3668207, 49.4218405], [8.3668979, 49.4218891], [8.3668181, 49.4219429], [8.3668624, 49.4219707], [8.3668433, 49.4219836], [8.3668683, 49.4219993], [8.366799, 49.4220459], [8.3667305, 49.4220029], [8.3666176, 49.422079], [8.3664931, 49.4220009]]]}}, {"type": "Feature", "properties": {"name": "Vinotel Schreieck", "addr:city": "Sankt Martin", "addr:street": "Maikammerer Stra\u00dfe", "addr:postcode": "67487", "kloepsce:postal_code": "67487", "cluster": "cluster_67_63", "kloepsce:id": "67#63", "kloepsce:name": "67#63 Vinotel Schreieck"}, "geometry": {"type": "Polygon", "coordinates": [[[8.1055499, 49.2993949], [8.1055047, 49.2993171], [8.1054899, 49.2992915], [8.1058459, 49.2992262], [8.1058747, 49.299337], [8.1058905, 49.2993981], [8.1058984, 49.2994307], [8.1057253, 49.2994473], [8.1057023, 49.2993733], [8.1055499, 49.2993949]]]}}, {"type": "Feature", "properties": {"name": "Hotel Oggersheimer Hof", "addr:city": "Ludwigshafen am Rhein", "addr:street": "Schillerstra\u00dfe", "addr:postcode": "67071", "kloepsce:postal_code": "67071", "cluster": "cluster_67_64", "kloepsce:id": "67#64", "kloepsce:name": "67#64 Hotel Oggersheimer Hof"}, "geometry": {"type": "Polygon", "coordinates": [[[8.3701131, 49.4872195], [8.370015, 49.4871429], [8.3701143, 49.4870894], [8.3702123, 49.487166], [8.3701131, 49.4872195]]]}}, {"type": "Feature", "properties": {"name": "Goldener Ochse", "addr:city": "Maikammer", "addr:street": "Marktstra\u00dfe", "addr:postcode": "67487", "kloepsce:postal_code": "67487", "cluster": "cluster_67_65", "kloepsce:id": "67#65", "kloepsce:name": "67#65 Goldener Ochse"}, "geometry": {"type": "Polygon", "coordinates": [[[8.1310063, 49.3046899], [8.130946, 49.3044733], [8.1310818, 49.3044595], [8.1311817, 49.3044544], [8.1312077, 49.3045725], [8.1312652, 49.30457], [8.1312831, 49.3046889], [8.1310063, 49.3046899]]]}}, {"type": "Feature", "properties": {"name": "Hotel Immenhof", "addr:city": "Maikammer", "addr:street": "Immengartenstra\u00dfe", "addr:postcode": "67487", "stars": "4", "kloepsce:postal_code": "67487", "cluster": "cluster_67_66", "kloepsce:id": "67#66", "kloepsce:name": "67#66 Hotel Immenhof"}, "geometry": {"type": "Polygon", "coordinates": [[[8.1330644, 49.3030466], [8.1337646, 49.3030532], [8.1337634, 49.3031084], [8.1337612, 49.3032072], [8.133061, 49.3032006], [8.1330644, 49.3030466]]]}}, {"type": "Feature", "properties": {"name": "Hotel Immenhof", "addr:city": "Maikammer", "addr:street": "Immengartenstra\u00dfe", "addr:postcode": "67487", "kloepsce:postal_code": "67487", "cluster": "cluster_67_67", "kloepsce:id": "67#67", "kloepsce:name": "67#67 Hotel Immenhof"}, "geometry": {"type": "Polygon", "coordinates": [[[8.1337634, 49.3031084], [8.1337646, 49.3030532], [8.1337625, 49.3030104], [8.1339437, 49.3030097], [8.1339431, 49.302955], [8.1341341, 49.3029542], [8.1341356, 49.3031068], [8.1337634, 49.3031084]]]}}, {"type": "Feature", "properties": {"name": "Goldenes Ross", "addr:city": "G\u00f6llheim", "addr:street": "Steigstra\u00dfe", "addr:postcode": "67307", "kloepsce:postal_code": "67307", "cluster": "cluster_67_68", "kloepsce:id": "67#68", "kloepsce:name": "67#68 Goldenes Ross"}, "geometry": {"type": "Polygon", "coordinates": [[[8.0518287, 49.5948885], [8.0519111, 49.5948722], [8.0519504, 49.5949558], [8.0520084, 49.5949443], [8.0519704, 49.5948635], [8.0519634, 49.5948485], [8.0520392, 49.5948343], [8.0520906, 49.5949988], [8.0520094, 49.5950156], [8.0520325, 49.5950574], [8.0519267, 49.5950821], [8.0518287, 49.5948885]]]}}, {"type": "Feature", "properties": {"name": "Hotel Garni - G\u00e4stehaus Steil GmbH", "addr:city": "Rodenbach", "addr:street": "Friedhofstra\u00dfe", "addr:postcode": "67688", "kloepsce:postal_code": "67688", "cluster": "cluster_67_69", "kloepsce:id": "67#69", "kloepsce:name": "67#69 Hotel Garni - G\u00e4stehaus Steil GmbH"}, "geometry": {"type": "Polygon", "coordinates": [[[7.6422278, 49.4718382], [7.6422562, 49.4717693], [7.6423209, 49.4717805], [7.6423382, 49.4717385], [7.6425388, 49.4717734], [7.6425505, 49.4717451], [7.6427314, 49.4717766], [7.6427208, 49.4718022], [7.6428817, 49.4718301], [7.6428349, 49.4719441], [7.6422278, 49.4718382]]]}}, {"type": "Feature", "properties": {"name": "Kraft Hotel", "addr:city": "Gundersheim", "addr:street": "An der Weidem\u00fchle", "addr:postcode": "67598", "kloepsce:postal_code": "67598", "cluster": "cluster_67_70", "kloepsce:id": "67#70", "kloepsce:name": "67#70 Kraft Hotel"}, "geometry": {"type": "Polygon", "coordinates": [[[8.2049217, 49.6982244], [8.2050156, 49.697996], [8.2051348, 49.6980166], [8.205041, 49.6982449], [8.2049217, 49.6982244]]]}}, {"type": "Feature", "properties": {"name": "Achat Premium", "addr:city": "Bad D\u00fcrkheim", "addr:street": "Kurgartenstra\u00dfe", "addr:postcode": "67098", "kloepsce:postal_code": "67098", "cluster": "cluster_67_71", "kloepsce:id": "67#71", "kloepsce:name": "67#71 Achat Premium"}, "geometry": {"type": "Polygon", "coordinates": [[[8.1692568, 49.4622032], [8.1697258, 49.4620102], [8.1704945, 49.4623199], [8.1701947, 49.4626247], [8.1692568, 49.4622032]]]}}, {"type": "Feature", "properties": {"name": "Hotel Domhof", "addr:city": "Speyer", "addr:street": "Bauhof", "addr:postcode": "67346", "stars": "3", "kloepsce:postal_code": "67346", "cluster": "cluster_67_72", "kloepsce:id": "67#72", "kloepsce:name": "67#72 Hotel Domhof"}, "geometry": {"type": "Polygon", "coordinates": [[[8.4409859, 49.3179552], [8.4410218, 49.3180699], [8.4409375, 49.3180941], [8.4409477, 49.3181584], [8.4409698, 49.318255], [8.4409978, 49.3183848], [8.4407539, 49.3184051], [8.4407599, 49.3184523], [8.4406249, 49.3184634], [8.4406186, 49.3184157], [8.4404719, 49.3184243], [8.4403508, 49.3184283], [8.4403276, 49.3183654], [8.4403078, 49.318324], [8.4402715, 49.3182815], [8.4402045, 49.3182065], [8.4406528, 49.3181261], [8.440632, 49.3180712], [8.4408082, 49.3180121], [8.4409859, 49.3179552]]]}}, {"type": "Feature", "properties": {"name": "Weinkastell \u201eZum Weissen Ross\u201c", "addr:city": "Kallstadt", "addr:street": "Weinstra\u00dfe", "addr:postcode": "67169", "kloepsce:postal_code": "67169", "cluster": "cluster_67_73", "kloepsce:id": "67#73", "kloepsce:name": "67#73 Weinkastell \u201eZum Weissen Ross\u201c"}, "geometry": {"type": "Polygon", "coordinates": [[[8.1750024, 49.4913228], [8.1752117, 49.4913281], [8.1752532, 49.4913315], [8.1752488, 49.4913489], [8.1752345, 49.4914047], [8.1751366, 49.4914044], [8.1749998, 49.4914038], [8.1750024, 49.4913228]]]}}, {"type": "Feature", "properties": {"name": "Moxy", "addr:city": "Ludwigshafen am Rhein", "addr:street": "Im Zollhof", "addr:postcode": "67061", "kloepsce:postal_code": "67061", "cluster": "cluster_67_74", "kloepsce:id": "67#74", "kloepsce:name": "67#74 Moxy"}, "geometry": {"type": "Polygon", "coordinates": [[[8.4495019, 49.4843403], [8.4493791, 49.4842698], [8.4490271, 49.4840673], [8.4491539, 49.4839742], [8.449436, 49.4841365], [8.4496369, 49.483989], [8.4498296, 49.4840998], [8.4495019, 49.4843403]]]}}, {"type": "Feature", "properties": {"name": "Landhotel Weingold im Domhof", "addr:city": "Guntersblum", "addr:street": "Hauptstra\u00dfe", "addr:postcode": "67583", "stars": "3S", "kloepsce:postal_code": "67583", "cluster": "cluster_67_75", "kloepsce:id": "67#75", "kloepsce:name": "67#75 Landhotel Weingold im Domhof"}, "geometry": {"type": "Polygon", "coordinates": [[[8.3468139, 49.7971613], [8.3467619, 49.7971795], [8.3466972, 49.7972022], [8.3466454, 49.7971471], [8.3468454, 49.7970718], [8.3469279, 49.7970475], [8.3469345, 49.7970543], [8.3468528, 49.7970786], [8.3469007, 49.7971224], [8.3469113, 49.7971195], [8.3469953, 49.7971805], [8.3469856, 49.7972232], [8.3469504, 49.7972308], [8.3468904, 49.797257], [8.3468532, 49.7972252], [8.34688, 49.797212], [8.3468139, 49.7971613]]]}}, {"type": "Feature", "properties": {"name": "Schlafgut Domhof", "addr:city": "Guntersblum", "addr:street": "Bleichstra\u00dfe", "addr:postcode": "67583", "stars": "3S", "kloepsce:postal_code": "67583", "cluster": "cluster_67_76", "kloepsce:id": "67#76", "kloepsce:name": "67#76 Schlafgut Domhof"}, "geometry": {"type": "Polygon", "coordinates": [[[8.346706, 49.7955431], [8.3467065, 49.7954614], [8.3467837, 49.7954616], [8.3469202, 49.795462], [8.3470697, 49.7954624], [8.3470692, 49.7955324], [8.3470332, 49.7955323], [8.3470331, 49.7955441], [8.346706, 49.7955431]]]}}, {"type": "Feature", "properties": {"name": "Kastanienhof", "addr:city": "Dannenfels", "addr:street": "Donnersbergstra\u00dfe", "addr:postcode": "67814", "kloepsce:postal_code": "67814", "cluster": "cluster_67_77", "kloepsce:id": "67#77", "kloepsce:name": "67#77 Kastanienhof"}, "geometry": {"type": "Polygon", "coordinates": [[[7.9471084, 49.6237507], [7.9470193, 49.6237382], [7.947016, 49.6237482], [7.9468979, 49.6237317], [7.9468898, 49.623756], [7.9468683, 49.6237645], [7.9468122, 49.6237567], [7.9468011, 49.6237396], [7.9466574, 49.6237196], [7.9466541, 49.6237295], [7.9465096, 49.6237093], [7.9465483, 49.6235929], [7.946664, 49.6236091], [7.9466681, 49.6235969], [7.9467826, 49.6236129], [7.946786, 49.6236029], [7.9469021, 49.6236191], [7.946906, 49.6236075], [7.9470256, 49.6236242], [7.9470284, 49.6236158], [7.9471477, 49.6236325], [7.9471084, 49.6237507]]]}}, {"type": "Feature", "properties": {"name": "Hotel Jakobslust", "addr:city": "Gr\u00fcnstadt", "addr:street": "Jakobstra\u00dfe", "addr:postcode": "67269", "kloepsce:postal_code": "67269", "cluster": "cluster_67_78", "kloepsce:id": "67#78", "kloepsce:name": "67#78 Hotel Jakobslust"}, "geometry": {"type": "Polygon", "coordinates": [[[8.1630215, 49.5674561], [8.163075, 49.5673035], [8.1633172, 49.5673397], [8.1632414, 49.5675876], [8.1632317, 49.5676083], [8.163159, 49.5675947], [8.1631897, 49.567481], [8.1630215, 49.5674561]]]}}, {"type": "Feature", "properties": {"name": "Holiday Inn Express Kaiserslautern", "addr:city": "Kaiserslautern", "addr:street": "Stra\u00dfburger Allee", "addr:postcode": "67657", "kloepsce:postal_code": "67657", "cluster": "cluster_67_79", "kloepsce:id": "67#79", "kloepsce:name": "67#79 Holiday Inn Express Kaiserslautern"}, "geometry": {"type": "Polygon", "coordinates": [[[7.7996676, 49.4561182], [7.7993508, 49.4559193], [7.7995066, 49.4558145], [7.799656, 49.4559084], [7.8000126, 49.4556684], [7.8001799, 49.4557734], [7.7996676, 49.4561182]]]}}, {"type": "Feature", "properties": {"name": "Hampton", "alt_name": "Hampton Inn", "addr:city": "Kaiserslautern", "addr:street": "Fischerstra\u00dfe", "addr:postcode": "67655", "kloepsce:postal_code": "67655", "cluster": "cluster_67_80", "kloepsce:id": "67#80", "kloepsce:name": "67#80 Hampton"}, "geometry": {"type": "Polygon", "coordinates": [[[7.7844595, 49.4419246], [7.7844696, 49.4419515], [7.7845101, 49.4420584], [7.7845337, 49.4421211], [7.784435, 49.4421369], [7.7844834, 49.4422649], [7.7844432, 49.4422713], [7.7844857, 49.4423837], [7.7842724, 49.4424178], [7.7842355, 49.4424237], [7.7841584, 49.4422196], [7.7841322, 49.4422237], [7.7841203, 49.4421924], [7.7841085, 49.442161], [7.7841347, 49.4421568], [7.7840704, 49.4419867], [7.7844595, 49.4419246]]]}}, {"type": "Feature", "properties": {"name": "Hotel Am Wartturm", "addr:city": "Speyer", "addr:street": "Landwehrstra\u00dfe", "addr:postcode": "67346", "stars": "3S", "kloepsce:postal_code": "67346", "cluster": "cluster_67_81", "kloepsce:id": "67#81", "kloepsce:name": "67#81 Hotel Am Wartturm"}, "geometry": {"type": "Polygon", "coordinates": [[[8.4259018, 49.3382078], [8.4259179, 49.3381941], [8.4258743, 49.3381723], [8.4259232, 49.3381308], [8.425954, 49.3381462], [8.426001, 49.3381064], [8.4261345, 49.3381732], [8.4261209, 49.3381848], [8.426164, 49.3382064], [8.4260861, 49.3382725], [8.4260701, 49.3382644], [8.4260561, 49.3382763], [8.4259948, 49.3382456], [8.4259883, 49.3382511], [8.4259018, 49.3382078]]]}}, {"type": "Feature", "properties": {"name": "Bastenhaus", "alt_name": "Verw\u00f6hnhotel Bastenhaus", "addr:city": "Dannenfels", "addr:postcode": "67814", "stars": "4", "kloepsce:postal_code": "67814", "cluster": "cluster_67_82", "kloepsce:id": "67#82", "kloepsce:name": "67#82 Bastenhaus"}, "geometry": {"type": "Polygon", "coordinates": [[[7.9188997, 49.6408836], [7.9187227, 49.6410344], [7.9185689, 49.6409607], [7.9186915, 49.6408665], [7.9186352, 49.6408416], [7.9185536, 49.6408056], [7.9183346, 49.6408962], [7.9182024, 49.6407623], [7.9184214, 49.6406717], [7.918514, 49.6405876], [7.9188427, 49.640734], [7.9189068, 49.6406736], [7.9189525, 49.6406938], [7.9189971, 49.6407136], [7.9190926, 49.640623], [7.9192047, 49.6406727], [7.9191092, 49.6407632], [7.9190434, 49.6408256], [7.9189851, 49.6407998], [7.9189441, 49.6408386], [7.9189119, 49.6408244], [7.9188654, 49.6408685], [7.9188997, 49.6408836]]]}}, {"type": "Feature", "properties": {"name": "City Apartments", "addr:city": "Kaiserslautern", "addr:street": "An der Lokhalle", "addr:postcode": "67663", "kloepsce:postal_code": "67663", "cluster": "cluster_67_83", "kloepsce:id": "67#83", "kloepsce:name": "67#83 City Apartments"}, "geometry": {"type": "Polygon", "coordinates": [[[7.7269694, 49.439993], [7.7270753, 49.4396499], [7.7272807, 49.4396773], [7.7271748, 49.4400204], [7.7269694, 49.439993]]]}}, {"type": "Feature", "properties": {"name": "WeinQuartier Bissersheim", "addr:city": "Bissersheim", "addr:street": "Bachgasse", "addr:postcode": "67281", "kloepsce:postal_code": "67281", "cluster": "cluster_67_84", "kloepsce:id": "67#84", "kloepsce:name": "67#84 WeinQuartier Bissersheim"}, "geometry": {"type": "Polygon", "coordinates": [[[8.2022016, 49.5371774], [8.2021084, 49.5370366], [8.201994, 49.5370685], [8.2019462, 49.5369964], [8.2020571, 49.5369655], [8.2020449, 49.5369471], [8.2021742, 49.5369111], [8.2023274, 49.5371424], [8.2022016, 49.5371774]]]}}]}